Name,Type,Street Address,City,State/Province,Zip/Postal Code,Country,Region,Owner,LinkedIn,Email
"360X Logistics LLC","FedEx","1925 Grandview Parkway","Sturtevant","WI","53177","US","USA","","",""
"Nile Transportation and Logistics Inc","FedEx","208 Honor Way","Madison","AL","35758","US","USA","","",""
"Absolute Fleet Services","FedEx","1101 W 40Th Street 2158","Chattanooga","TN","37409","US","USA","","",""
"SabSaf LLC","FedEx","3250 Business Park Dr","Vista","CA","92081","US","USA","Saba Safiari","",""
"FYDAQ Transport","FedEx","PO Box 166","Glenpool","OK","74033","US","USA","","",""
"Hohl Transport Inc","FedEx","700 42nd Street","West Des Moines","IA","50265","US","USA","","",""
"North Florida Courier Inc","FedEx","4000 Faye Rd","Jacksonville","FL","32226","US","USA","","",""
"Legacy Transport Inc","FedEx","18135 Furuby Rd","Shafer","MN","55074-9712","US","USA","","",""
"AG Logistics Services Inc","FedEx","8500 Echo Shore Cv","Austin","TX","78737","US","USA","","",""
"AKA Enterprises Inc","FedEx","","Lenexa","KS","","US","USA","Aaron Brown","",""
"Route Runner Inc","FedEx","7585 Factory Shoals Rd","Austell","GA","","US","USA","","",""
"Black Enterprises of WNC Inc","FedEx","286 Shootout Ln","Burnsville","NC","28714","US","USA","","",""
"Apex Efficient Logistics LLC","FedEx","615 South 8th Street #1202","Minneapolis","MN","55404","US","USA","","",""
"Belmont Service Company","FedEx","4030 Wake Forest Road, Ste 349","Raleigh","NC","27609","US","USA","","",""
"BHL Holdings Inc","FedEx","2606 Gold Leaf Pt","Gainesville","GA","30504","US","USA","","",""
"BlueStar Trucking LLC","FedEx","1223 Jodi Dr","Yuba City","CA","95993","US","USA","","",""
"Clout Enterprises 1 Inc","FedEx","3225 California St","Omaha","NE","68131","US","USA","","",""
"Bulldog Express","FedEx","65 Glen Rd","Garner","NC","27529","US","USA","","",""
"Wyandotte Inc","FedEx","102 Becica St","Columbus","TX","78934","US","USA","","",""
"C2C Express Inc","FedEx","51229 872 Rd","Orchard","NE","68764-6475","US","USA","","",""
"Impact Delivery Services","FedEx","3710 Hazel Ave","Cumming","GA","30040","US","USA","","",""
"Camden County Logistics Inc","FedEx","","Lincoln Park","NJ","","US","USA","","",""
"AG Trucking Inc","FedEx","9093 Anza","Planada","CA","95365","US","USA","","",""
"Lightspeed Transportation Inc","FedEx","414 Broad St","Perkasie","PA","18944","US","USA","","",""
"Frontgate Inc","FedEx","3717 23rd St S. Suite #203","St. Cloud","MN","56301","US","USA","","",""
"Diversified Inc","FedEx","8325 Highland Dr.","Wausau","WI","54401","US","USA","","",""
"Alpha Kilo Logistics Inc","FedEx","","Memphis","TN","","US","USA","","",""
"Costa Shipping & Delivery Inc","FedEx","401 Pine St.","St. Louis","MO","63102","US","USA","","",""
"HJC Logistics 326 Corp","FedEx","1 Alhambra Plaza PH","Coral Gables","FL","33134","US","USA","","",""
"SSGMAT Inc","FedEx","7609 Sleepy Hollow","Amarillo","TX","79121","US","USA","","",""
"Redbone Trucking Inc","FedEx","625 West 1100 North","North Salt Lake","UT","84054","US","USA","","",""
"Customer Centric Delivery Inc","FedEx","6245 Little Lake Sawyer Drive","Windermere","FL","34786","US","USA","Stephen R Lorenc","",""
"JK Distribution Inc","FedEx","","Stewartville","MN","","US","USA","","",""
"Allen Flavors Inc","FedEx","230 St Nicholas Ave","South Plainfield","NJ","7080","US","USA","","",""
"Alpha19 Deliveries Inc","FedEx","18131 Bearpath Trl","Eden Prairie","MN","55347-3468","US","USA","","",""
"Blackrock Logistics Inc","FedEx","7598 Kelly Dr","Dublin","OH","43016","US","USA","","",""
"SB Transportation Service Inc","FedEx","7575 Kingspointe Pkwy Ste 26","Orlando","FL","32819-8508","US","USA","Diana Rodriguez","",""
"Blue Ox Transport Inc","FedEx","4657 Engen Rd","Pequot Lakes","MN","56472","US","USA","","",""
"Tollgate Road Logistics Inc","FedEx","279 Troy Road, Suite 9 #276","Rensselaer","NY","12144","US","USA","","",""
"SMS Group Inc","FedEx","100 Sandusky St","Pittsburgh","PA","15212","US","USA","","",""
"JND Deliveries Inc","FedEx","1800 Como Ave Suite 200F","St. Paul","MN","55108","US","USA","","",""
"CTE Logiscs Inc","FedEx","138 Van Schaick Avenue","Cohoes","NY","12047","US","USA","","",""
"DDA Services Inc","FedEx","11 Navigator Rd","Londonderry","NH","3053","US","USA","","",""
"DC Express Transport Group LLC","FedEx","426 Gage Hill Lane","Fairburn","GA","30213","US","USA","","",""
"Way Routes Inc","FedEx","7815 N Dale Mabry Hwy Ste 202","Tampa","FL","33614","US","USA","","",""
"North Star Delivery","FedEx","2101 Bryant Ave N","Minneapolis","MN","55411","US","USA","","",""
"InCharge Logistics Inc","FedEx","1929 E Ray Rd Ste 4","Chandler","AZ","85225-8722","US","USA","","",""
"QIC Corporation","FedEx","23757 W 82nd Terrace","Lenexa","KS","66227","US","USA","Jeffrey A. Quick","",""
"Apex Delivery Logistics Inc","FedEx","61 Harvard St Suite 105","Worcester","MA","1609","US","USA","","",""
"Chenoweth Logistics Solutions Inc","FedEx","1850 Star Batt Drive","Rochester Hills","MI","48309","US","USA","","",""
"Rocabox Inc","FedEx","445 COFFEEN ST.","Watertown","NY","13601","US","USA","","",""
"Desert Fox Logistics Inc","FedEx","204 E 17th St","Hays","KS","67601","US","USA","Ken Eland","",""
"Lee Logistics Inc","FedEx","14250 Grasslands Dr","Englewood","CO","80112","US","USA","","",""
"Hongfeng US Services Corp","FedEx","851 Burlway Rd, Ste 423","Burlingame","CA","94010","US","USA","","",""
"Beeline Group Inc","FedEx","168 W Main St Ste 231","New Market","MD","21774","US","USA","","",""
"Excel Expedited Inc","FedEx","","Austell","GA","30168","US","USA","","",""
"Sang Dynasty Inc","FedEx","","Columbia","SC","","US","USA","","",""
"S&S Palmer Trucking","FedEx","14250 Grasslands Dr","Englewood","CO","80112","US","USA","","",""
"Infinite Global Management Inc","FedEx","20500 S La Grange Rd Ste 200S","Frankfort","IL","60423-1901","US","USA","","",""
"FloMac Transportation Inc","FedEx","1654 Charleigh Ford D Ford Jr Drive","Columbus","MS","39701","US","USA","","",""
"J.L. Pitcock Logistics Co","FedEx","3007 N UNIVERSITY DR UNIT 630005","Nacogdoches","TX","75963-0016","US","USA","","",""
"J Parle Group","FedEx","14927 Fondren Road","Missouri City","TX","77489","US","USA","","",""
"KLV Ventures Inc","FedEx","8115 Lemongrass Ave","Baytown","TX","77521","US","USA","","",""
"Pony Xpress Delivery","FedEx","459 Charleston St","Cadiz","OH","43907-1272","US","USA","","",""
"RRDS Inc","FedEx","","Cottage Grove","WI","","US","USA","","",""
"SAFOA Enterprises Inc","FedEx","2255 Cumberland Pkwy, Building 500 Suite P","Atlanta","GA","30339","US","USA","","",""
"SK United Corp","FedEx","5202 Commerce Rd","Flint","MI","48507","US","USA","","",""
"SM Miller Enterprises Inc","FedEx","11816 Inwood Rd. Suite 71071","Dallas","TX","75244-8011","US","USA","","",""
"SWS Forward LLC","FedEx","424 Church Street, Suite 2000","Nashville","TN","37219","US","USA","","",""
"SYCS Trucking Company","FedEx","320 W. Lanier Ave Ste 200","Fayetteville","GA","30214","US","USA","","",""
"WITFAWN","FedEx","","Portland","OR","","US","USA","","",""
"Luna Delivery Inc","FedEx","","Tampa","FL","","US","USA","","",""
"Mills River Logistics Inc","FedEx","14 Harmony Ridge Road","Candler","NC","28715","US","USA","","",""
"Ground Force Trucking Inc","FedEx","","Dallas","TX","","US","USA","","",""
"J and J Surplus Logistics Incorporated","FedEx","2314 Mcdonald Blvd","Florence","SC","29506","US","USA","","",""
"Coyote Courier Services LLC","FedEx","5058 S 40th St","Phoenix","AZ","85040","US","USA","","",""
"Sigma Continental","FedEx","1026 Progress St Apt B501","Pittsburgh","PA","15212","US","USA","","",""
"Purple Haven Inc","FedEx","556 Anacortes Court NE Unit 102","Renton","WA","98059","US","USA","","",""
"Rco Enterprises Inc","FedEx","15514 116Th St East","Puyallup","WA","98374","US","USA","","",""
"OMO Transport Inc","FedEx","6 Arctic Circle","Biddeford","ME","4005","US","USA","","",""
"Big Mountain Transport","FedEx","","Salt Lake City","UT","","US","USA","","",""
"Desert Delivery Inc","FedEx","","Aztec","NM","","US","USA","","",""
"Fairview Trucking","FedEx","","Pittston","PA","","US","USA","","",""
"A & O Associates Inc","FedEx","587 Mount Joy Square","East Wenatchee","WA","98802","US","USA","","",""
"J. R. McBride Inc","FedEx","1210 E AUTUMN RIDGE ROAD","Carbondale","IL","62902","US","USA","","",""
"KTB Group Inc","FedEx","4500 South Garnett Road Ste. #910","Tulsa","OK","74046","US","USA","","",""
"KTB Transport Inc","FedEx","4500 South Garnett Road Ste. #910","Tulsa","OK","74046","US","USA","","",""
"TRED Corporation","FedEx","114 Essex St Ste 100","Rochelle Park","NJ","07662-4348","US","USA","","",""
"Stubbs Logistics","FedEx","19785 West 12 Mile Rd","Southfield","MI","48076","US","USA","","",""
"Denver Greenlight Inc","FedEx","","Denver","CO","","US","USA","","",""
"KMMR Business Group Inc","FedEx","2 Center Court Ln","Penfield","NY","14526-1848","US","USA","","",""
"Black Swan Inc","FedEx","2945 Mirrowmere Circle","Bryan","TX","77807","US","USA","","",""
"CunEx Inc","FedEx","401 Hicksville Rd","Bethpage","NY","11714","US","USA","Miguel Taveras","",""
"Crossroads Freight Systems","FedEx","8455 West Bryn Mawr Ave, Suite 3S","Chicago","IL","60631","US","USA","","",""
"CM Delivery Inc","FedEx","","Quincy","MA","","US","USA","","",""
"208 Logistics LLC","FedEx","7983 S Cloverdale Rd","Boise","ID","83709","US","USA","","",""
"Workhorse Technologies Inc","FedEx","3600 Park 42 Dr Ste 160E","Sharonville","OH","45241","US","USA","","",""
"NorthStar Courier Inc","FedEx","7347 Spring Lake Rd","Saint Paul","MN","55112","US","USA","","",""
"Moab Incorporated","FedEx","127 Covenant Dr","Dothan","AL","36303-7788","US","USA","","",""
"Cal Services Inc","FedEx","1109 Amboy Ave Suite 201","Edison","NJ","8837","US","USA","","",""
"RaFSaF Logistics Inc","FedEx","330 Resource Dr","Rialto","CA","92316","US","USA","","",""
"Greeneagle Transport Inc","FedEx","66 Riverside Ave","Westport","CT","6880","US","USA","","",""
"Liberty Transport Inc","FedEx","","Jacksonville","FL","","US","USA","","",""
"Genalco Inc","FedEx","333 Reservoir St","Needham","MA","2494","US","USA","","",""
"Parrish Inc","FedEx","1625 TURTLE ALKE RD","Quincy","IL","62305","US","USA","","",""
"Mylottis Inc","FedEx","","Superior","WI","","US","USA","","",""
"Supreme Logix Inc","FedEx","","Savannah","GA","","US","USA","","",""
"Last Mile Shipping Corporation","FedEx","9726 Ne 5th St","Bellevue","WA","98004-5418","US","USA","","",""
"Chile Pepper Transport Inc","FedEx","107 Enterprise Court","Oxford","NC","27565","US","USA","","",""
"Timothy Wade Scherer","FedEx","10620 93Rd St SW","Lakewood","WA","98498","US","USA","","",""
"Burnett Trucking Inc","FedEx","23 State Rt 211","Cuddebackville","NY","12729-0347","US","USA","","",""
"Letter Ride LLC","FedEx","6120 Business Center Court Suite 500","San Diego","CA","92154","US","USA","","",""
"Routewise Logistics Inc","FedEx","","Austell","GA","","US","USA","","",""
"Yopo Expedite Inc","FedEx","3734 W Airline Hwy","Waterloo","IA","50703","US","USA","","",""
"STAT Overnight Delivery LLC","FedEx","403 International Pkwy Suite 505","Richardson","TX","75081","US","USA","","",""
"Great Northern Shipping Company Inc","FedEx","511 Claffey Dr","Polson","MT","59860-4133","US","USA","","",""
"Packages On Time Inc","FedEx","16005 Alsace Dr","Charlotte","NC","28278","US","USA","","",""
"Manuwest inc","FedEx","","Carol Stream","IL","","US","USA","","",""
"Lubin Logistics Company","FedEx","325 E Paces Ferry Rd NE Apt 304","Atlanta","GA","30305-5702","US","USA","","",""
"Kiele II Inc","FedEx","61 Juanita Ct","Sequim","WA","98382","US","USA","","",""
"Power Grid Resources Inc","FedEx","743 Pleasant Grove Church Rd","Villa Rica","GA","30180-4776","US","USA","","",""
"Silvan Corporation","FedEx","5501 Providence Hill Dr","Saint Joseph","MO","64507","US","USA","","",""
"Ground Runners Express Inc","FedEx","10212 San Gabriel Ave","South Gate","CA","90280","US","USA","","",""
"Tan Unlimited Transportation","FedEx","3800 Mountain Way Cv","Snellville","GA","30039","US","USA","","",""
"Tyson Hinrichsen","FedEx","120 W 19Th","Grand Island","NE","68801","US","USA","","",""
"TBJ Trucking","FedEx","","Texarkana","AR","71854","US","USA","","",""
"True Transport & Logistics Ltd Co","FedEx","281 Stone Rd","Mcdonough","GA","30253","US","USA","","",""
"Cornerstone Trucking Inc","FedEx","","Atlanta","GA","","US","USA","","",""
"Zip Freight Lines Inc","FedEx","20209 Parke Ln","Grosse Ile","MI","48138","US","USA","","",""
"Zoomed Xpedited Logistics LLC","FedEx","839 E Market St Ste 106","Akron","OH","44305","US","USA","","",""
"Kando Express Inc","FedEx","7860 E Mount Zion Church Rd PO Box 30793","Hallsville","MO","65255","US","USA","","",""
"KMN Logistics","FedEx","300 E Business Way Ste 210","Cincinnati","OH","45241","US","USA","","",""
"Springbok Holdings Inc","FedEx","4357 S. Alston Ave","Durham","NC","27703","US","USA","","",""
"Wandun Enterprise Inc","FedEx","7307 Roseville Rd, Ste 11","Sacramento","CA","95842","US","USA","","",""
"Billygoat Logistics Inc","FedEx","1121 Sturgeon Court, suit 119","Arlington","TX","76001","US","USA","","",""
"Centurion Logistics","FedEx","160 West Canyon Crest Drive","Alpine","UT","84020","US","USA","","",""
"GTH Logistics Inc","FedEx","15105D John J Delaney Dr, Ste 102","Charlotte","NC","28277","US","USA","","",""
"Gyomoryguyinc","FedEx","","North Branch","MI","48461","US","USA","","",""
"Halden Delivery Inc","FedEx","","Shakopee","MN","","US","USA","","",""
"JAK Logistics Inc","FedEx","4100 W. Flamingo Road, Suite 1100","Las Vegas","NV","89103","US","USA","","",""
"Level Up Logistics Inc","FedEx","","West Fargo","ND","58078","US","USA","","",""
"Morris Logistics Inc","FedEx","","Wells Bridge","NY","","US","USA","","",""
"Nelson Delivery Inc","FedEx","","Taunton","MA","","US","USA","","",""
"Neville Express Inc","FedEx","","Olathe","KS","","US","USA","","",""
"One on Ten Shipping Services","FedEx","","Greenville","SC","","US","USA","","",""
"Perkins Logistics Inc","FedEx","","Briggs","TX","","US","USA","","",""
"Rodriguez Courier Freight Inc","FedEx","7715 Distribution Dr","Little Rock","AR","72209","US","USA","","",""
"Regal Express","FedEx","","Woodbridge","NJ","","US","USA","","",""
"Rick Jackson Transport Inc","FedEx","136-4 Forum Drive","Columbia","SC","29229","US","USA","","",""
"R.A.S. Transport Inc","FedEx","1320 Central Park blvd","Fredericksburg","VA","22401","US","USA","","",""
"Summit Delivery Company","FedEx","5959 W Howard St","Niles","IL","60714","US","USA","Pavel Priakhine","",""
"Tailwinds II Inc","FedEx","","Livonia","MI","","US","USA","","",""
"Thunderbolt Transport Inc","FedEx","742 Ashland ave","Folcroft","PA","","US","USA","","",""
"Tisx Corp","FedEx","11588 Klotz Farm Blvd","Fishers","IN","46037-2150","US","USA","Wilbur Joseph Thomas III","",""
"TJFACT LLC","FedEx","","Fort Knox","KY","40121","US","USA","","",""
"Tread Transportation Services Inc","FedEx","9818 Fry Rd STE 150-55","Cypress","TX","77433","US","USA","","",""
"Watson Tank Corp","FedEx","","Cookeville","TN","","US","USA","","",""
"Ground Pounders Inc","FedEx","10301 Bennett Parkway","Zionsville","IN","46077","US","USA","","",""
"Wheel’d","FedEx","1071 Boulder Road","Greensboro","NC","27409","US","USA","","",""
"WSI Transport Inc","FedEx","1300 Princeton Avenue","Ponca City","OK","74601","US","USA","","",""
"Route 119 Trucking Inc","FedEx","9145 Farmington Court","Zionsville","IN","46077","US","USA","Robert G. Bernard","",""
"18Logistics","FedEx","","Lakeland","FL","","US","USA","","",""
"Crossno Corp","FedEx","7550 Ball Road","Fort Smith","AR","72908","US","USA","","",""
"Always On Point Transportation Inc","FedEx","","Barrington","NJ","","US","USA","","",""
"Infinite Commitment Solutions Inc","FedEx","801 Broad Street","Augusta","GA","30901","US","USA","","",""
"Drizzle Goods","FedEx","","Eastaboga","AL","","US","USA","","",""
"EXE Lines Inc","FedEx","110 W Everly Brothers Blvd","Central City","KY","42330","US","USA","","",""
"JARS Transportation","FedEx","2650 Thousand Oaks Blvd. Suite 2370","Memphis","TN","38118","US","USA","","",""
"JBS Home Delivery Services Inc","FedEx","","West Palm Beach","FL","","US","USA","","",""
"JTA Deliveries Inc","FedEx","15731 Crow Rd","Nashville","IL","62263","US","USA","","",""
"K & R Shipping Logistics Inc","FedEx","2817 Torrey Pine Dr","Medina","OH","44256","US","USA","Corey Risolvato","",""
"Power Vision Transportation","FedEx","8275 Allison Pointe Trail Suite 325","Indianapolis","IN","46250","US","USA","","",""
"RKA Logistics Inc","FedEx","","Jackson","TN","","US","USA","","",""
"Steve C. Davis Inc","FedEx","935 E Mountain St.","Kernersville","NC","27284","US","USA","","",""
"True Transport Inc","FedEx","16011 State Road 60","Borden","IN","47106","US","USA","Jonathan J Cooper","",""
"TBJ Trucking LLC","FedEx","4541 E Fm 485","Cameron","TX","76520","US","USA","","",""
"Martin’s P & D Inc","FedEx","3836 Norwood Ln","Tuscaloosa","AL","35405-3330","US","USA","","",""
"Kennedy Global Logistics Group","FedEx","413 16th St N","Birmingham","AL","","US","USA","","",""
"Sushil Kumar","FedEx","27318 111Th Pl Se","Kent","WA","98030","US","USA","","",""
"Wright Now Trucking Inc","FedEx","3116 Belharbour Drive","Modesto","CA","95355","US","USA","","",""
"FrontRange Partners Inc","FedEx","343 Rittiman Road","San Antonio","TX","78209","US","USA","","",""
"Kyunis Enterprise Inc","FedEx","4806 Lee Hutson Lane","Sachse","TX","75048","US","USA","","",""
"Terrance Fjeld","FedEx","21222 181St Ave","Sebeka","MN","56477","US","USA","","",""
"Package Peddler Inc","FedEx","3907 Jewett Avenue","Hammond","IN","46322","US","USA","Bill Stephen","",""
"Megehee Logistics Inc","FedEx","959 Mary Ruth Drive","Gulfport","MS","39507","US","USA","","",""
"Robert Young Trucking Inc","FedEx","502 Casdorph Road","Charleston","WV","25312","US","USA","","",""
"Lynx Transport Inc","FedEx","6001 Nw 74th Avenue # 117A","Miami","FL","33166","US","USA","","",""
"Ryan Ramirez","FedEx","421 East Academy Ave","Maize","KS","67101-9621","US","USA","","",""
"Ground Runners Express","FedEx","","Anaheim","CA","","US","USA","","",""
"R&J Linehaul Inc","FedEx","520 South Main Street # 2417","Akron","OH","44311","US","USA","","",""
"Mountain King Inc","FedEx","9944 White Pine Road","Lincoln","NE","68527","US","USA","","",""
"Sutton Kobza Inc","FedEx","960 County Road 21","Wahoo","NE","68066","US","USA","","",""
"FJ Trucking Inc","FedEx","4950 Anna Circle","Billings","MT","59106","US","USA","","",""
"JNL Brown Trucking Corp","FedEx","1601 2nd Ave N Suite 128","Great Falls","MT","59401","US","USA","","",""
"Roll24 7 LLC","FedEx","102 SUNRISE RD","Davenport","FL","33837","US","USA","","",""
"EPR Transport Inc","FedEx","1927 California Avenue","White Oak","PA","15131","US","USA","Erin Roach","",""
"J & K Express Inc","FedEx","7256 W Michelangelo Dr","Springfield","MO","65803","US","USA","Kerri Pitts","",""
"Darmak Trucking Inc","FedEx","259 Cedarwood Dr","Mansfield","OH","44904","US","USA","","",""
"Morgan & Morgan Transportation Inc","FedEx","297 Hopper Circle","Speedwell","TN","37870","US","USA","","",""
"ZE Distribution Inc","FedEx","1395 North Constellation Way","Gilbert","AZ","85234","US","USA","","",""
"Leggio Distribution","FedEx","1405 Carnation Avenue","Metairie","LA","70001","US","USA","","",""
"Amador Express Inc","FedEx","","Albuquerque","NM","","US","USA","","",""
"Perro Grande Management Corp","FedEx","2019 Galisteo Street # B","Santa Fe","NM","87505","US","USA","","",""
"C L Ross Inc","FedEx","216 East 36Th Ave","Kennewick","WA","99337","US","USA","","",""
"Mccoy Enterprises Inc","FedEx","11319 E 19Ht Ave","Spokane Valley","WA","99206","US","USA","","",""
"BLB Delivery Inc","FedEx","2019 NW 86th Way","Ankeny","IA","50023","US","USA","Brian Bloom","",""
"Kentyko Inc","FedEx","8 River Vista Drive","Adel","IA","50003","US","USA","","",""
"GameOn Trans Inc","FedEx","62 Cedarlawn Boulevard","Valley Stream","NY","11580","US","USA","","",""
"Lowther Enterprises Inc","FedEx","20 Broad Lane","Au Sable Forks","NY","12912","US","USA","","",""
"Ivanes Express Co Inc","FedEx","3939 N Pontatoc Rd","Tucson","AZ","85718-6723","US","USA","","",""
"Hammarstrom inc","FedEx","824 Tinker Mill Road","Daleville","VA","24083","US","USA","","",""
"Mickle Enterprises Incorporated","FedEx","790 Se Holly Street","Prineville","OR","97754","US","USA","","",""
"AM Deliveries of Oregon Inc","FedEx","2840 Se Collins Place","Corvallis","OR","97333","US","USA","","",""
"Dickman Delivery Corp","FedEx","1000 North Pine Street, Suite A","Rolla","MO","65401","US","USA","","",""
"Forthman Enterprises Inc","FedEx","5000 S Nevada Abr Apt 201","Siox Falls","SD","57108","US","USA","","",""
"TNT Trucking LTD","FedEx","3127 Mckee Avenue Sw","Grand Rapids","MI","49509","US","USA","","",""
"Triple T Leasing Inc","FedEx","2414 Sunset Drive","Iowa Falls","IA","50126","US","USA","","",""
"Saga Kapital Group Inc","FedEx","108 SAYBROOK","Irvine","CA","92620","US","USA","","",""
"Shoeder’s Delivery Service","FedEx","","Rhinelander","WI","54501","US","USA","","",""
"Pride Valley Transport","FedEx","7185 Falcon Drive","Wausau","WI","54401","US","USA","","",""
"Trucailber Feirme Ltd","FedEx","12193 Transit Line Rd","Springville","NY","14141","US","USA","","",""
"GLR of New York Inc","FedEx","22 Mechanic St","North Tonawanda","NY","14120","US","USA","","",""
"Torres Trucking","FedEx","1884 Grace Ave","Ft Lupton","CO","80621","US","USA","","",""
"Fos Inc","FedEx","15710 Wilmot Avenue","Golden","CO","80403","US","USA","Paul Book","",""
"Reetzo Inc","FedEx","1256 Woodhill Drive","Gibsonia","PA","15044","US","USA","","",""
"T & L Services Incorporated","FedEx","197 Lairds Crossing Road","Worthington","PA","16262","US","USA","","",""
"Randy’s Package System Inc","FedEx","1255 Brinkerton Rd","Hempfield Twp","PA","15601","US","USA","","",""
"Hubble Logistics","FedEx","2560 Bertelkamp Ln","Knoxville","TN","37931","US","USA","","",""
"ARD Transportation","FedEx","6265 Atlantic Blvd","Norcross","GA","30071","US","USA","","",""
"Mid Cape Ground Delivery Service","FedEx","11 Smoke Rise Circle","Swansea","MA","2777","US","USA","","",""
"Surf Eagle Corp Inc","FedEx","30 Club Forest Ct","Sumter","SC","29154","US","USA","","",""
"Derwood Services","FedEx","560 Coldstream Drive","Columbia","SC","29212","US","USA","","",""
"J Miks Logistics Inc","FedEx","105 Bellhaven Ln","Lexington","SC","29072","US","USA","","",""
"Leib Inc","FedEx","2281 Scotch Valley Road","Hollidaysburg","PA","16648","US","USA","","",""
"AMTB Delivery Inc","FedEx","1209 Joanne Terrace","Byron","IL","61010","US","USA","","",""
"Clashmore Logistics Inc","FedEx","1040 Salem Church Rd","Old Fort","NC","28762","US","USA","Ryan Keith Kelley","",""
"Will Rober Enterprise Inc","FedEx","1534 Ridgebriar Drive","Houston","TX","77014","US","USA","","",""
"Liberty Package Service Inc","FedEx","3602 Deer Creek Road","Mount Pleasant","SC","29466","US","USA","","",""
"Mac’s On Time Inc","FedEx","35 Jude Court","Greer","SC","29651","US","USA","","",""
"Dilara Shipping","FedEx","257 Weiss Terrace","Raritan","NJ","8869","US","USA","","",""
"Olive Tree Transportation LLC","FedEx","","Uniontown","OH","","US","USA","","",""
"BMAC Motor Freight Inc","FedEx","2833 Valor Drive","Wilmington","NC","28411","US","USA","","",""
"Ready Line Express Inc","FedEx","5740 Osage Beach Pkwy, Ste 1005","Osage Beach","MO","65065","US","USA","William Patterson","",""
"Natim Transport & Delivery Inc","FedEx","18340 East 42nd Street","Tulsa","OK","74134","US","USA","","",""
"MIH Logistics","FedEx","31532 Railroad Canyon Rd","Canyon Lake","CA","92587","US","USA","","",""
"Blazer Blue Logistics","FedEx","13115 SW Tualatin-Sherwood Rd","Sherwood","OR","97140","US","USA","","",""
"Peralta Transportation Inc","FedEx","96 HARDING AVE","Clifton","NJ","7011","US","USA","","",""
"Benedict Packaging Services Inc","FedEx","3127 Cemetery Road","Kingston","MI","48741","US","USA","","",""
"108 Logistics Inc","FedEx","","Rigby","ID","","US","USA","","",""
"2D Logistix Inc","FedEx","","Lake Orion","MI","","US","USA","","",""
"3 Es Corp","FedEx","","Ocoee","FL","","US","USA","","",""
"3LB Delivery Services","FedEx","","San Rafael","CA","","US","USA","","",""
"3M&K Delivery Inc","FedEx","21271 COUNTY ROAD 2138","Troup","TX","75789","US","USA","","",""
"3PL Enterprises Inc","FedEx","","Oceanside","CA","","US","USA","","",""
"570 Logistics Inc","FedEx","","Northampton","PA","","US","USA","","",""
"61-192820","FedEx","","St. Louis","MO","","US","USA","","",""
"742 Logistics Inc","FedEx","4030 Wake Forest Road, Ste 349","Raleigh","NC","27609","US","USA","","",""
"9Line Transport Inc","FedEx","","Austin","TX","","US","USA","","",""
"A & J Dhillon Logistics Inc","FedEx","8501 Foothills Blvd","Roseville","CA","95747","US","USA","","",""
"A G M Inc","FedEx","","Clover","SC","","US","USA","","",""
"A-Line Logistics Inc","FedEx","","Santa Fe","NM","","US","USA","","",""
"A.L.E Express Inc","FedEx","","East Greenbush","NY","","US","USA","","",""
"A&B Logistics Inc","FedEx","","Austin","TX","","US","USA","","",""
"A&V Inc","FedEx","","Tucson","AZ","","US","USA","","",""
"A2B Enterprises Inc","FedEx","1613 Berne Circle NE","Fridley","MN","55421","US","USA","Benjamin L Saukko","",""
"AA Logistics Corp","FedEx","","Woodbridge","NJ","","US","USA","","",""
"AARM Logistics Inc","FedEx","","Apopka","FL","","US","USA","","",""
"ACAL Logistics","FedEx","","Fort Myers","FL","33905","US","USA","","",""
"Accudelivery Inc","FedEx","285 E 400 N","Valparaiso","IN","46383","US","USA","","",""
"ACED Management KY Inc","FedEx","","Louisville","KY","","US","USA","","",""
"AE EA Enterprise Inc","FedEx","","Madison","WI","","US","USA","","",""
"AEBT Investments Inc","FedEx","830 E. ALOSTA AVE","Azusa","CA","91702","US","USA","","",""
"AFA Logistics Inc","FedEx","2211 South Military Hwy Ste B","Chesapeake","VA","23320","US","USA","","",""
"AG Logistics","FedEx","","Sparks","NV","","US","USA","","",""
"Agera Logistics Inc","FedEx","","Saline","MI","","US","USA","","",""
"Agile Logistics Inc","FedEx","873 East Baltimore Pike Unit #2003","Kennett Square","PA","19348","US","USA","","",""
"Agilis Delivery Inc","FedEx","","Rensselaer","NY","","US","USA","","",""
"Agra Transit Inc","FedEx","","Billerica","MA","","US","USA","","",""
"AJM Enterprises Inc","FedEx","927 Ampere Pl","Lake St Louis","MO","63367-2211","US","USA","Alexander William Mayes","",""
"Alamance Enterprise Inc","FedEx","","Irving","TX","","US","USA","","",""
"Alcalde Inc","FedEx","","Oceanside","CA","","US","USA","","",""
"Alex Delivery Corp","FedEx","","Carol Stream","IL","","US","USA","","",""
"Align Logistics Inc","FedEx","","Barrington","NJ","","US","USA","","",""
"All-Ways Delivers","FedEx","","Buffalo","NY","","US","USA","","",""
"Almeida Trucking Inc","FedEx","","Lexington","KY","","US","USA","","",""
"Alpimex Inc","FedEx","7 Rolling Ridge Rd","Northfield","IL","60093-1013","US","USA","Alexandar Popov","",""
"Alro Transportation Corporation","FedEx","","Oak Lawn","IL","","US","USA","","",""
"Altia Transportation Corporation","FedEx","","Tracy","CA","","US","USA","","",""
"AMA Bhagawati Express Inc","FedEx","508 Pemberwich Pl","Cary","NC","27519","US","USA","","",""
"AMH Shipping Corp","FedEx","","Reston","VA","","US","USA","","",""
"Anrod Clinton PD1 Inc","FedEx","","Clinton","PA","","US","USA","","",""
"ANS Corp","FedEx","","Tempe","AZ","","US","USA","","",""
"Anthony Packaging Services Inc","FedEx","4981 M 700 E","Hamlet","IN","46532","US","USA","Brandon Anthony","",""
"AP Distribution","FedEx","","Corryton","TN","","US","USA","","",""
"APB Logistics Inc","FedEx","15992 Shoreline Dr","Punta Gorda","FL","33982","US","USA","Mary Elizabeth Meloni","",""
"Apex Deliveries","FedEx","","Paducah","KY","","US","USA","","",""
"Appalachian Valley Transport Inc","FedEx","35 Fish Hatchery Ln","Eastaboga","AL","","US","USA","","",""
"AR Transportation Services","FedEx","","Ellenwood","GA","","US","USA","","",""
"Aratrans Inc","FedEx","2423 Garden Creek Drive","Arlington","TX","76018","US","USA","","",""
"Ark Delivery Inc","FedEx","","Spartanburg","SC","","US","USA","","",""
"Ark Line Inc","FedEx","","Beltsville","MD","","US","USA","","",""
"Ark Services Inc","FedEx","","Greenville","NC","","US","USA","","",""
"Aspen Transit Inc","FedEx","","Aurora","CO","","US","USA","","",""
"Astoria Ventures","FedEx","","Fredericksburg","VA","","US","USA","","",""
"Ataner Corp","FedEx","","Azalia","MI","","US","USA","","",""
"Atlantic City Bus Co Inc","FedEx","1328 Victory Palm Drive","Edgewater","FL","32132","US","USA","Bruce Barshay","",""
"Atlas Ground Logistics","FedEx","","North Billerica","MA","","US","USA","","",""
"AUS Logistics Inc","FedEx","","Arlington","TX","","US","USA","","",""
"Austin Transport Inc","FedEx","","Chambersburg","PA","","US","USA","","",""
"Austin Trucking inc","FedEx","","Orlando","FL","","US","USA","","",""
"Ava Inc","FedEx","","Dickinson","ND","","US","USA","","",""
"Avalanche Delivery Inc","FedEx","","Cadillac","MI","","US","USA","","",""
"Axe Logistics Inc","FedEx","","Pompano Beach","FL","","US","USA","","",""
"AZAR Trucking","FedEx","","Winchester","VA","","US","USA","","",""
"B.S. Trucking Inc","FedEx","64 N Painted Horse Cir","New Castle","CO","81647","US","USA","Daniel Patrick Smetzer","",""
"B&B Transport Inc","FedEx","","Marion","IA","","US","USA","","",""
"B&T Distributions Inc","FedEx","1004 Circle Green Drive","Clarks Summit","PA","18411","US","USA","","",""
"Babclam Inc","FedEx","","Fort Worth","TX","76136","US","USA","","",""
"Bach SJ Ltd","FedEx","5731 W 108th Ave","Westminster","CO","80020","US","USA","","",""
"Badger Logistics Inc","FedEx","","Fargo","ND","","US","USA","","",""
"BAM Logistics Pro Inc","FedEx","","Sanford","FL","","US","USA","","",""
"Bart Transportation Inc","FedEx","","Cato","NY","","US","USA","","",""
"BAS Logistics Inc","FedEx","","Fullerton","CA","","US","USA","","",""
"Battle Born Express Inc","FedEx","","Sparks","NV","","US","USA","","",""
"Baus Inc","FedEx","","Saginaw","MI","","US","USA","","",""
"Bay Routes Inc","FedEx","","Halethorpe","MD","","US","USA","","",""
"Bayman Logistic’s Inc","FedEx","","Marrero","LA","","US","USA","","",""
"Bayston Logistics Inc","FedEx","","Punta Gorda","FL","","US","USA","","",""
"BD&K Logistics Inc","FedEx","","Pittsburg","KS","","US","USA","","",""
"Beech Trucking Inc","FedEx","","Luling","LA","","US","USA","","",""
"Benley Inc","FedEx","8500 E 116th Street, Unit# 842","Fishers","IN","46038","US","USA","Hesam Nouri","",""
"Berry #1 Inc","FedEx","","Livonia","MI","","US","USA","","",""
"Better Off Trucking Inc","FedEx","","Portland","OR","","US","USA","","",""
"BG Logistics","FedEx","","Fort Myers","FL","","US","USA","","",""
"Big Prairie Ventures Inc","FedEx","14285 Kalamath Street","Westminster","CO","80023","US","USA","Brent Jacobsen","",""
"Biggs Transport Inc","FedEx","","Columbus","OH","","US","USA","","",""
"Bighorn Holdings Inc","FedEx","945 Sandywood Rd","Sikeston","MO","63801-8255","US","USA","","",""
"BigTime Trucking","FedEx","","Montgomery","NY","","US","USA","","",""
"Bilbro Express","FedEx","1095 S 4800 W","Salt Lake City","UT","84104","US","USA","","",""
"Billings LH Logistics Inc","FedEx","100 24th St W # 1-225","Billings","MT","59102-4771","US","USA","","",""
"Bison Shipping & Logistics Inc","FedEx","6020 Airport Drive","Charlotte","NC","28208","US","USA","","",""
"Bistrica Inc","FedEx","","Palatine","IL","","US","USA","","",""
"BJBM","FedEx","8481 GREENTRAILS CT","Elk Grove","CA","95624","US","USA","","",""
"BL III Inc","FedEx","835 McClintock Drive, Second Floor","Burr Ridge","IL","60527","US","USA","","",""
"BL Logistics Inc","FedEx","","Knightdale","NC","","US","USA","","",""
"Blackland Transport Inc","FedEx","","Leander","TX","","US","USA","","",""
"Blackstar Logistics","FedEx","","Richfield","OH","","US","USA","","",""
"Blessed Trucking Inc","FedEx","2356 Ainsworth Ave","Deltona","FL","32738-2547","US","USA","","",""
"Bloomfield Logistics Inc","FedEx","","Kodak","TN","","US","USA","","",""
"Blu-Express Inc","FedEx","","Philadelphia","PA","","US","USA","","",""
"Blue Devil Logistics","FedEx","951 Centerville Rd","Newville","PA","17241-9586","US","USA","","",""
"Blue Skies Logistics Corp","FedEx","","Belleville","MI","","US","USA","","",""
"BluSky P&D Inc","FedEx","","Boise","ID","","US","USA","","",""
"BLY Transport","FedEx","","Grand Rapids","MI","","US","USA","","",""
"BMK Trucking Inc","FedEx","","Schofield","WI","","US","USA","","",""
"Boone Faulkner Enterprises Inc","FedEx","","Jonesboro","AR","","US","USA","","",""
"Bowen Inc","FedEx","","New Baltimore","MI","","US","USA","","",""
"Boxed Logistics Inc","FedEx","","Middletown","NY","","US","USA","","",""
"Boxes N Bags Inc","FedEx","","Stephens City","VA","","US","USA","","",""
"BQ Express Inc","FedEx","8220 Belvedere Ave","Sacramento","CA","95826","US","USA","","",""
"Brenric Inc","FedEx","5007 Diane Dr","Greater Wichita Falls","TX","76302-4132","US","USA","","",""
"Broadbent Provisions Inc","FedEx","","Henderson","CO","","US","USA","","",""
"Brockenduke Inc","FedEx","","Abilene","TX","","US","USA","","",""
"Bronzeback Inc","FedEx","6173 Perkins 30.5 Rd","Rapid River","MI","49878","US","USA","","",""
"Bryant Logistics Inc","FedEx","118 Summerfield Ln","Anderson","SC","29621-4532","US","USA","","",""
"BTTC Trucking Inc","FedEx","","Greensboro","NC","","US","USA","","",""
"Bulldog Delivery Inc","FedEx","25930 67th Ave","Lawton","MI","49065","US","USA","Dan Boswell","",""
"Bulldog Management Corporation","FedEx","5000 North Ridge Trail","Davenport","FL","33897","US","USA","","",""
"C&E Delivery Inc","FedEx","","Jacksonville","FL","","US","USA","","",""
"C&G Delivery Service Inc","FedEx","6312 Highland Estates Dr","Saint Louis","MO","63129-4650","US","USA","Gerald T Gruska","",""
"C&J’s Logistics Inc","FedEx","609 Deep Valley Dr Ste 200","Rolling Hills Estates","CA","90274","US","USA","Christopher Briggs","",""
"CAB Logistics Inc","FedEx","","Allentown","PA","","US","USA","","",""
"Cajun Priority Express","FedEx","","Baton Rouge","LA","70809","US","USA","","",""
"Canon Careers","FedEx","","Chattanooga","TN","","US","USA","","",""
"Canon Solutions America Inc","FedEx","","Township Of Monroe","NJ","8831","US","USA","","",""
"Cardenas Inc","FedEx","","Ventura","CA","","US","USA","","",""
"Cardinal Express Inc","FedEx","","Nashville","TN","","US","USA","","",""
"Caroden Logistics Inc","FedEx","1301 Eagleson Ln","Wake Forest","NC","27587-5287","US","USA","","",""
"CaroJack Inc","FedEx","4327 BEEKMAN DR","Nashville","TN","37215","US","USA","","",""
"Carr’s Delivery Inc","FedEx","","Rockford","IL","","US","USA","","",""
"Carson Smart Trucking","FedEx","","Ontario","OH","","US","USA","","",""
"Castaway Contractors Inc","FedEx","","Dublin","GA","","US","USA","","",""
"Cauble Enterprises Inc","FedEx","Sandywood Rd","Sikeston","MO","63801-8255","US","USA","","",""
"CBI Express Inc","FedEx","","Dover","NJ","","US","USA","","",""
"CCS Express Inc","FedEx","29 Colony Acres Road","Longmeadow","MA","1106","US","USA","Christine Spelman","",""
"CD Express Inc","FedEx","305 S Main Street","Lowell","NC","28098","US","USA","","",""
"Celebic Trucking Inc","FedEx","14100 Parke Long Ct Ste I","Chantilly","VA","20151-1644","US","USA","","",""
"Cerfus Logistics 1 Inc","FedEx","5858 HONEYCREEK DRIVE","Milwaukee","WI","53221","US","USA","","",""
"Chalim Inc","FedEx","","Kennesaw","GA","","US","USA","","",""
"Cherokee Federal","FedEx","","Huntsville","AL","","US","USA","","",""
"Chiappetta Logistics Inc","FedEx","","Zelienople","PA","","US","USA","","",""
"Chromero Inc","FedEx","8431 WAYNE AVE","Lubbock","TX","79424-4028","US","USA","","",""
"CJ&J","FedEx","9 AL Foxie Way","Blauvelt","NY","10913","US","USA","","",""
"CJX Logistics Inc","FedEx","","Roanoke","VA","","US","USA","","",""
"Clark Logistics Corporation","FedEx","","Whitsett","NC","","US","USA","","",""
"CLK Transport Inc","FedEx","","Muskegon","MI","","US","USA","","",""
"Clout Enterprises","FedEx","","Omaha","NE","","US","USA","","",""
"CMD Inc","FedEx","","Grimes","IA","","US","USA","","",""
"Coastal Package Inc","FedEx","","Weymouth","MA","","US","USA","","",""
"Coastline Carrier Corp","FedEx","","Scarborough","ME","","US","USA","","",""
"Coastline Carriers Inc","FedEx","1425 Branch Row","Wilmington","NC","28405","US","USA","","",""
"Cobblestone Industries Inc","FedEx","","Murfreesboro","TN","","US","USA","","",""
"Coble Logistics Inc","FedEx","","Bowling Green","KY","","US","USA","","",""
"Coffee Logistics Inc","FedEx","3912 Battleground Ave, Ste. 112-283","Greensboro","NC","27410","US","USA","","",""
"Combined Arms Logistics Inc","FedEx","","Henderson","NV","","US","USA","","",""
"Construct Inc","FedEx","","Jacksonville","FL","32219","US","USA","","",""
"Contract Express Inc","FedEx","","Grayslake","IL","","US","USA","","",""
"Cornelius Parcel Services Inc","FedEx","888 Suchava Drive","White Lake","MI","48386-4555","US","USA","Chad Cornelius","",""
"Cornerstone Logistics Inc","FedEx","","Bemidji","MN","","US","USA","","",""
"Cortlandt Co","FedEx","2400 N. Memorial Dr","Greenville","NC","77007","US","USA","","",""
"Courier Express Global Inc","FedEx","635 Community Dr","South Burlington","VT","5403","US","USA","","",""
"Cox Logistics Inc","FedEx","","Tulsa","OK","","US","USA","","",""
"Creekwood Legacy Inc","FedEx","","Irving","TX","","US","USA","","",""
"Cripston Transportation Inc","FedEx","","Stafford","VA","","US","USA","","",""
"CSJ Logistics Inc","FedEx","9290 Carringston Avenue","Parkland","FL","33076","US","USA","Steven Imparato","",""
"CT South Corp","FedEx","","Port Wentworth","GA","","US","USA","","",""
"Custom Delivery Services","FedEx","11 Northtown Drive Ste 225","Jackson","MS","39211","US","USA","","",""
"Customer First Courier Inc","FedEx","","Carson","CA","","US","USA","","",""
"CVH Transportation","FedEx","","Braselton","GA","","US","USA","","",""
"CWC Delivery Services Inc","FedEx","1211 Delaware Dr","Mansfield","TX","76063","US","USA","","",""
"D&F Transportation Inc","FedEx","","Charlotte","NC","","US","USA","","",""
"D&N Fleet Corp","FedEx","","Queens","NY","","US","USA","","",""
"D3J Express Corp","FedEx","","Bessemer","AL","","US","USA","","",""
"D5 Logistics Inc","FedEx","","Chino","CA","","US","USA","","",""
"DA Enterprises Inc","FedEx","15200 Hwy 41 North","Evansville","IN","47725","US","USA","Dustin Cauble","",""
"Dacotah Express Inc","FedEx","2217 S. Ronsiek Avenue","Sioux Falls","SD","57106","US","USA","","",""
"DAMAR Logistics TMP Corp","FedEx","","Parrish","FL","","US","USA","","",""
"Dancor Inc","FedEx","1601 Brown Rd","Orion Twp","MI","48359","US","USA","","",""
"Danny-O Inc","FedEx","","Watkins","MN","","US","USA","","",""
"Davis EIS Enterprise LLC","FedEx","","Newville","PA","17241","US","USA","","",""
"Davis Logistics Salina Inc","FedEx","","Salina","KS","","US","USA","","",""
"Dawn & Sons Enterprises","FedEx","","Brick Township","NJ","","US","USA","","",""
"DAZ Delivery Corporation","FedEx","1361 Meghann Lane","Waxahachie","TX","75167","US","USA","","",""
"DBI Logistics Inc","FedEx","","Davenport","IA","","US","USA","","",""
"DC Express","FedEx","","Chattanooga","TN","","US","USA","","",""
"DCCB Inc","FedEx","","Portland","OR","","US","USA","","",""
"DCS Enterprises","FedEx","","Palmdale","CA","","US","USA","","",""
"Dean Lambert Inc","FedEx","","Stockbridge","GA","","US","USA","","",""
"Decker Express Inc","FedEx","","Abilene","TX","","US","USA","","",""
"Defex Inc","FedEx","1044 OAK TREE LAND","Annapolis","MD","21409","US","USA","","",""
"Delaney Logistics I Inc","FedEx","","Saginaw","MI","","US","USA","","",""
"Delivery Bee Inc","FedEx","2120 Daugherty Rd","China Grove","NC","28023-7683","US","USA","","",""
"Delivery Lab Corp","FedEx","4288 LACEBARK LN","Naperville","IL","60564","US","USA","","",""
"Delivery Logistics Inc","FedEx","","Lewiston","ME","","US","USA","","",""
"Delrus Inc","FedEx","","Sacramento","CA","","US","USA","","",""
"Derek McCoy Inc","FedEx","60 N Brayton Rd","Tiverton","RI","2878","US","USA","Derek McCoy","",""
"Desert Sun Delivery Inc","FedEx","8059 S. Dolphin Way","Tucson","AZ","85756","US","USA","","",""
"Devine Distribution Inc","FedEx","","Danville","IL","","US","USA","","",""
"Devonna","FedEx","","Trenton","NJ","","US","USA","","",""
"DHR Logistics","FedEx","","Norfolk","VA","","US","USA","","",""
"Diamond Delivery Corp","FedEx","1590 Hughes Drive","Cumming","GA","30040","US","USA","","",""
"Diamond Hogz Logistics Inc","FedEx","","Jonesboro","AR","","US","USA","","",""
"Dilly Logistics Inc","FedEx","7008 92nd Ave N","Brooklyn Park","MN","55445","US","USA","","",""
"DKA Trucking","FedEx","","Chicago","IL","","US","USA","","",""
"DMJ2 Logistics Inc","FedEx","1820 E. Ray Road #1000","Chandler","AZ","85225","US","USA","","",""
"DMJZ Inc","FedEx","","Mankato","MN","56001","US","USA","","",""
"DMM inc","FedEx","","Mount Juliet","TN","","US","USA","","",""
"Double R Logistics","FedEx","","Murfreesboro","TN","","US","USA","","",""
"Double Up Inc","FedEx","","Fort Worth","TX","","US","USA","","",""
"DRB Delivery Inc","FedEx","6850 Weber Blvd","Ladson","SC","29456","US","USA","","",""
"Dreaming Purple Inc","FedEx","31 Cambridge Drive","Wolcott","CT","6716","US","USA","Timothy Fennell","",""
"Drifted South Inc","FedEx","","Saint Petersburg","FL","","US","USA","","",""
"DSLG Maintenance Corp","FedEx","","Brooklyn","NY","","US","USA","","",""
"DTR Logistics Inc","FedEx","688 Alliance Pkwy Box 6","Hewitt","TX","76643-4298","US","USA","","",""
"DWW Inc","FedEx","","Dupont","WA","","US","USA","","",""
"DX2 Express Inc","FedEx","","Barrington","NJ","","US","USA","","",""
"DXP Group","FedEx","","Kansas City","MO","","US","USA","","",""
"E-Comm Services Inc","FedEx","","Manitowoc","WI","","US","USA","","",""
"E&B Delivery Inc","FedEx","1110 East North Street","Benton","AR","72015","US","USA","","",""
"Early Start Express","FedEx","","Oak Park","MI","","US","USA","","",""
"EBB II Inc","FedEx","915 S Wolfe St APT 117","Baltimore","MD","21231-3652","US","USA","","",""
"Echo Ca Logistics","FedEx","","Hayward","CA","","US","USA","","",""
"Eco Products LLC","FedEx","","Lake Orion","MI","","US","USA","","",""
"Ekholm Enterprises Inc","FedEx","1101 W. Glen Eagle Circle","Sioux Falls","SD","57108","US","USA","","",""
"Elansis Logistics Inc","FedEx","","White Marsh","MD","","US","USA","","",""
"Eliel Logistics Inc","FedEx","7373 Madison Ave","Indianapolis","IN","46227","US","USA","Lalram Sunthang","",""
"Elite Delivery Corporation","FedEx","","York","PA","","US","USA","","",""
"Empire Carriers Corp","FedEx","","Medley","FL","","US","USA","","",""
"Enroute Logistics Inc","FedEx","","Hayward","CA","","US","USA","","",""
"Envy Logistics","FedEx","","Carson","CA","","US","USA","","",""
"ER&B Logistics Inc","FedEx","","Columbia","SC","","US","USA","","",""
"ERT Logistics Inc","FedEx","5 Tsienneto Rd, Unit 121","Derry","NH","3038","US","USA","","",""
"ESG Logistics Corp","FedEx","","Hamilton","OH","","US","USA","","",""
"ETCH Transport Company Inc","FedEx","","Little Rock","AR","","US","USA","","",""
"ETLA Express Inc","FedEx","7901 Kingspointe Pkwy #28","Orlando","FL","32819","US","USA","","",""
"Excel Delivery Inc","FedEx","","Ellenwood","GA","","US","USA","","",""
"Excelerated Logistics","FedEx","","Menomonee Falls","WI","","US","USA","","",""
"Express NDM Corporation","FedEx","905 Hwy 321 NW, Suite 321","Hickory","NC","28601","US","USA","","",""
"EZ Logistics Inc","FedEx","","Rolla","MO","","US","USA","","",""
"F&ZSHAMS Incorporated","FedEx","7787 CRYSTAL BROOK WAY","Hanover","MD","21076","US","USA","","",""
"Fabio Inc","FedEx","","Rogers","MN","","US","USA","","",""
"FAF Logistics","FedEx","","Jacksonville","FL","","US","USA","","",""
"Falcon Delivery Service Inc","FedEx","","Portage","MI","","US","USA","","",""
"Falcon Transportation Enterprises","FedEx","","Oceanside","CA","","US","USA","","",""
"Fast and Fierce Inc","FedEx","1313 N. Road St. Suite 209","Elizabeth City","NC","27909","US","USA","","",""
"Fastforward Enterprises Inc","FedEx","6722 Shoals Way","Indianapolis","IN","46237","US","USA","John Simon","",""
"FC Delivery Inc","FedEx","","Burlington","WA","","US","USA","","",""
"FC Logistics Inc","FedEx","","Aztec","NM","","US","USA","","",""
"FedM Inc","FedEx","","Portland","OR","","US","USA","","",""
"Fee Patriot Transportation Inc","FedEx","2410 Saddle Ridge Lane","Cape Girardeau","MO","63701","US","USA","Joshua A Fee","",""
"FetGo Inc","FedEx","","Monroe","LA","","US","USA","","",""
"FGV Inc","FedEx","","Whitefish Bay","WI","","US","USA","","",""
"FH Logistics Incorporated","FedEx","8502 GROVELAND DR","Dallas","TX","75218-4310","US","USA","","",""
"Final Mile Logistics Inc","FedEx","163 Pitman Rd","Morgantown","WV","26501","US","USA","","",""
"First Priority Logistics","FedEx","","Perrysburg","OH","","US","USA","","",""
"Fitzpatrick Enterprises","FedEx","","Norcross","GA","","US","USA","","",""
"FJ Trucking","FedEx","","Billings","MT","","US","USA","","",""
"Flex Express Inc","FedEx","","Sacramento","CA","95822","US","USA","","",""
"FMW West Inc","FedEx","","Oceanside","CA","92056","US","USA","","",""
"FNS Transport Inc","FedEx","","San Jacinto","CA","","US","USA","","",""
"Foot Delivery Services Inc","FedEx","","Denver","CO","","US","USA","","",""
"Force Transportation","FedEx","","Dover","DE","","US","USA","","",""
"Four Boys Transportation","FedEx","","Show Low","AZ","","US","USA","","",""
"Fowler Logistics","FedEx","","Spartanburg","SC","","US","USA","","",""
"Fralin Enterprise Inc","FedEx","3169 Nace Rd","Fincastle","VA","24090-4521","US","USA","Steve Fralin","",""
"Frank P&D Inc","FedEx","3439 Deer Ridge Ct","Rose Hill","KS","67133-8833","US","USA","Robin E. Frank","",""
"Freedom Freight Inc","FedEx","","Greenville","SC","","US","USA","","",""
"Freedom Packages Inc","FedEx","3011 Chestnut Ridge Church Rd","Efland","NC","27243","US","USA","","",""
"Front Range Trucking","FedEx","","Denver","CO","","US","USA","","",""
"Fulsom Logistics Inc","FedEx","","Fresno","CA","","US","USA","Troy Fulsom","",""
"Gaines Transportation Inc","FedEx","42092 Mansfield Park Ct","Chantilly","VA","20152-6131","US","USA","Jeffrey H Gaines II","",""
"Gaka D’s Deli","FedEx","","Grimes","IA","","US","USA","","",""
"Galway Group Inc","FedEx","2512 Denmead St","Lakewood","CA","90712","US","USA","","",""
"Gama Service Express Inc","FedEx","2308 National Drive","Brooklyn","NY","11234","US","USA","","",""
"Garrid Enterprises Inc","FedEx","8515 W Canary Ct","Garden City","ID","83714","US","USA","John Grigsby","",""
"GEM Transport Inc","FedEx","","Gaithersburg","MD","","US","USA","","",""
"Genesis Inc","FedEx","","Hermitage","PA","","US","USA","","",""
"Genesys Logistics II Inc","FedEx","13265 PATCHIN DR","Nunica","MI","49448","US","USA","","",""
"Genesys Logistics Inc","FedEx","","Gaylord","MI","","US","USA","","",""
"Getr Done Delivery Services Inc","FedEx","1613 Pacific Ave Ste 88","Oxnard","CA","93033-4093","US","USA","","",""
"GL Transportation Inc","FedEx","2299 US Highway 64 West","Mocksville","NC","27028","US","USA","","",""
"Glass City Runners Inc","FedEx","","Allentown","PA","","US","USA","","",""
"Global Truck Terminal Inc","FedEx","","Modesto","CA","","US","USA","","",""
"GLSL Properties Inc","FedEx","14904 COUNTY ROAD 1104","Flint","TX","75762-3200","US","USA","","",""
"GNLC Shipping Inc","FedEx","","Lewiston","ME","","US","USA","","",""
"Go On Further Corp","FedEx","","Atlanta","GA","","US","USA","","",""
"GOAT Logistics","FedEx","","Bowling Green","OH","","US","USA","","",""
"GoFreight Solutions Co","FedEx","6025 Brooklyn Ave","Kansas City","MO","64130","US","USA","","",""
"Goldstar Partners Delivery Inc","FedEx","6112 Lakeway Dr","Fayetteville","NC","28306","US","USA","","",""
"Gomez Trucking Inc","FedEx","","Moreno Valley","CA","","US","USA","","",""
"GR8 Courier Inc","FedEx","","Watertown","NY","","US","USA","","",""
"Grackson Logistics Inc","FedEx","13148 Broad St","Carmel","IN","46032","US","USA","Ryan Nelson","",""
"Grayscreen Inc","FedEx","2031 Bridleside Drive","Indian Trail","NC","28079","US","USA","","",""
"Greene Logistics Inc","FedEx","","Redmond","WA","","US","USA","","",""
"Greylock Logistics","FedEx","","Twinsburg","OH","","US","USA","","",""
"Ground Logistics New Castle Inc","FedEx","","New Castle","DE","","US","USA","","",""
"GroundForce Inc","FedEx","","St Paul","MN","","US","USA","","",""
"GRush Logistics","FedEx","","Elmsford","NY","","US","USA","","",""
"GS Shipping Corp","FedEx","","Redmond","WA","","US","USA","","",""
"GSC Logistics Inc","FedEx","","Bessemer","AL","","US","USA","","",""
"GSE Services","FedEx","","Barrington","NJ","","US","USA","","",""
"Gulf Coast Logistics Inc","FedEx","13509 Waterworks St","Jacksonville","FL","32221","US","USA","","",""
"Gulf Coast Parcel Inc","FedEx","","Mandeville","LA","","US","USA","","",""
"GWC Trucking Inc","FedEx","","Hagerstown","MD","","US","USA","","",""
"H&M Transfer Inc","FedEx","","Litchfield","IL","","US","USA","","",""
"H&S Logistics Inc","FedEx","6213 Pine Chapel Drive","Charlotte","NC","28273","US","USA","","",""
"H2L Ground Delivery Inc","FedEx","3050 Fite Cir","Sacramento","CA","95827","US","USA","","",""
"Habibi Logistics Inc","FedEx","","Pompano Beach","FL","","US","USA","","",""
"Hackman Express","FedEx","","Morton","IL","","US","USA","","",""
"Halcyon Logistics","FedEx","","Denver","CO","","US","USA","","",""
"Halethorpe Logistics","FedEx","","Millersville","MD","","US","USA","","",""
"Hammons and Long Inc","FedEx","","Portland","OR","","US","USA","","",""
"Hand Transport Service Inc","FedEx","135 FedEx Way","Greenville","SC","29605","US","USA","","",""
"Hanging Rock Logistics Inc","FedEx","2804 Hwy 54 PMB 307","Peachtree City","GA","30269","US","USA","Troy Christopher Wood","",""
"Hansen Logistics Inc","FedEx","1846 E. Innovation Park Dr., Ste 100","Oro Valley","AZ","85755","US","USA","Andrew T Hansen","",""
"Harding Logistics Inc","FedEx","","Harrison","AR","","US","USA","","",""
"Hartford Package Inc","FedEx","","Worcester","MA","","US","USA","","",""
"HD Six Corporation","FedEx","","Sanford","FL","","US","USA","","",""
"Heaton Deliveries Inc","FedEx","6518 Ashbrook Drive","Fort Wayne","IN","46835","US","USA","Kyle Heaton","",""
"Helamen Shipping Inc","FedEx","","Bethlehem","PA","","US","USA","","",""
"Hemingway Couriers Inc","FedEx","325 Homan Rd","Lebanon","OH","45036","US","USA","","",""
"Hendrix Services Inc","FedEx","","Rio Rancho","NM","","US","USA","","",""
"HER Delivery Services Inc","FedEx","","White","MD","","US","USA","","",""
"HERC Logistics Inc","FedEx","","North Jackson","OH","","US","USA","","",""
"Herd Enterprises","FedEx","","Minneapolis","MN","","US","USA","","",""
"Hermes Consulting Corp","FedEx","","New York","NY","","US","USA","","",""
"Hernandez Corp","FedEx","","North Las Vegas","NV","","US","USA","","",""
"Hess Logistics Inc","FedEx","4030 Wake Forest Road, Ste 349","Raleigh","NC","27609","US","USA","","",""
"HFC","FedEx","","Chicago","IL","","US","USA","","",""
"High Desert Delivery Inc","FedEx","3071 NE Stripling Ct","Prineville","OR","97754-9030","US","USA","","",""
"High Standards II Inc","FedEx","113 Pine Lane","Colchester","VT","5446","US","USA","","",""
"High Tide","FedEx","","Liberty","NC","","US","USA","","",""
"Hill Freight Express Inc","FedEx","7117 Wytheville Cirlce","Fredericksburg","VA","22407","US","USA","","",""
"HLC Logistics Corp","FedEx","","Auburn Hills","MI","","US","USA","","",""
"Hobbes Logistics Inc","FedEx","","Richfield","OH","","US","USA","","",""
"Hobbs Wood Logistics","FedEx","","Eastaboga","AL","","US","USA","","",""
"HoCo Logistics Inc","FedEx","3354 Wild Rose Court","Wichita","KS","67205","US","USA","Kirk Howie","",""
"Holyoke News Co Inc","FedEx","720 Main Street","Holyoke","MA","1040","US","USA","","",""
"Hornet Transport North Inc","FedEx","","Fort Worth","TX","","US","USA","","",""
"HR K Client Services","FedEx","","Lansing","MI","","US","USA","","",""
"Huarui US Services Corp","FedEx","23482 FOLEY ST SUITE D","Hayward","CA","94545","US","USA","","",""
"Huizar Bros lll Inc","FedEx","13530 KELTON CT","Moreno Valley","CA","92555","US","USA","","",""
"Hurricane Logistics Inc","FedEx","6-2 W Meadow Ln","Middletown","CT","06457-1656","US","USA","Carlyle Ballard","",""
"Hutch Motors Inc","FedEx","","Pasco","WA","","US","USA","Eric Hutchcraft","",""
"I Genco Inc","FedEx","","Reading","MA","","US","USA","","",""
"IAFS Logistics Inc","FedEx","8366 Pedigrue Ct","Gainesville","VA","20155-3240","US","USA","","",""
"ICLLA Inc","FedEx","","Alexandria","LA","","US","USA","","",""
"IDirect F Inc","FedEx","","Davenport","FL","","US","USA","","",""
"Impact Solutions Inc","FedEx","","Centennial","CO","","US","USA","","",""
"Impel Logistics Inc","FedEx","","Twinsburg","OH","","US","USA","","",""
"Indy Night Starr Inc","FedEx","2501 S. Sycamore Terrace St","Terre Haute","IN","47803","US","USA","Terry Norris","",""
"Integrated Solutions & Logistics","FedEx","","Jacksonville","FL","","US","USA","","",""
"Integrity Midwest LLC","FedEx","","Greenville","WI","","US","USA","","",""
"Intrusted Delivery Corp","FedEx","","Grand Rapids","MI","","US","USA","","",""
"Isaiah Trucking Inc","FedEx","11414 S 150th St","Omaha","NE","68138","US","USA","","",""
"ISP Manjarreza Expressa Inc","FedEx","","Van Buren","AR","72956","US","USA","","",""
"J & M National Inc","FedEx","157R PHIPPS ST","Quincy","MA","2169","US","USA","","",""
"J A Peters Trucking Inc","FedEx","3261 Lee Way Ct","North Fort Myers","FL","33903","US","USA","","",""
"J Eid Inc","FedEx","","Shakopee","MN","","US","USA","","",""
"J.H.T Enterprises Inc","FedEx","9858 Clint Moore Rd Ste # 111 # 232","Boca Raton","FL","33496","US","USA","","",""
"J.K. Delivers Inc","FedEx","","Fresno","CA","","US","USA","","",""
"J.R. Delivery Service","FedEx","","Quincy","MA","","US","USA","","",""
"J.R.Rod Inc","FedEx","","Wichita Falls","TX","","US","USA","","",""
"J&M Package and Delivery Service Inc","FedEx","","Barrington","NJ","","US","USA","","",""
"J&S Patriot Corp","FedEx","","Grand Island","NE","","US","USA","","",""
"J2S PD Services Inc","FedEx","","Irving","TX","","US","USA","","",""
"J316 Enterprises Inc","FedEx","685 Alliance Pkwy","Hewitt","TX","","US","USA","","",""
"JAB Express Inc","FedEx","","Naples","FL","","US","USA","","",""
"Jacson Endeavors Inc","FedEx","","Midland","TX","","US","USA","","",""
"JAI Express Inc","FedEx","","Orion","MI","","US","USA","","",""
"JB Courier AL Inc","FedEx","","Anniston","AL","","US","USA","","",""
"JCJJ Inc","FedEx","2751 N POINCIANA BLVD, UNIT 28","Kissimmee","FL","34746","US","USA","","",""
"Jdog Inc","FedEx","789 SAVANNAH LN","Dayton","TN","37321","US","USA","","",""
"JDS Parcel Inc","FedEx","5395 SHANNAMARA DR","Matthews","NC","28104","US","USA","","",""
"Jett Transportation Inc","FedEx","","Livonia","MI","","US","USA","","",""
"JFSpeed Express Inc","FedEx","","","AR","","US","USA","","",""
"JFX Capital Inc","FedEx","2389 Main St","Glastonbury","CT","06033-4617","US","USA","James Flynn","",""
"JG Delivery Inc","FedEx","","Rensselaer","NY","","US","USA","","",""
"JH BDT Inc","FedEx","10400 ROGER STREET","Portage","MI","49002","US","USA","","",""
"JJ Logistics of Jacks Inc","FedEx","","Jacksonville","FL","","US","USA","","",""
"JJ’s Logistics of Jax Inc","FedEx","4295 Greenalnd Road","Jacksonville","FL","32258","US","USA","Jennifer Jarvis","",""
"JJH Transport Corp","FedEx","6369 Red Fox Road","Lino Lakes","MN","55014","US","USA","","",""
"JJW Delivery Inc","FedEx","1921 Susquehanna Ave","Exeter","PA","18643","US","USA","","",""
"JMC Delivery Inc","FedEx","","Sauget","IL","","US","USA","","",""
"JMG Logistics Inc","FedEx","","Fort Worth","TX","","US","USA","","",""
"John Carter Incorporated","FedEx","","Lebanon","OH","","US","USA","","",""
"Johnson Express Logistics Inc","FedEx","300 Noah Place","Mcdonough","GA","30252","US","USA","Willie Johnson","",""
"Joint Logistics Incorporated","FedEx","834 Highway 12 W. Suite 319","Starkville","MS","39759","US","USA","","",""
"Jokhan Trucking Corp","FedEx","","Braselton","GA","","US","USA","","",""
"Jones Contract Deliveries Inc","FedEx","3088 BUCHANAN LOOP RD","Texarkana","TX","75501","US","USA","","",""
"Josh Long Trucking Inc","FedEx","","Owingsville","KY","","US","USA","","",""
"JP Guthrie Inc","FedEx","2227 Mineral Spring Avenue","North Providence","RI","2911","US","USA","Joshua Guthrie","",""
"JP Logistics Inc","FedEx","","Olathe","KS","","US","USA","","",""
"JPB Logistics Inc","FedEx","9314 FOREST HILL BLVD 301","West Palm Beach","FL","33411","US","USA","","",""
"JPM Trucking","FedEx","","Savannah","GA","","US","USA","","",""
"JRV Transportation","FedEx","","Ontario","OH","","US","USA","","",""
"JS Eagles Transport Inc","FedEx","","Miamisburg","OH","","US","USA","","",""
"JS Transportation Corp","FedEx","","Mobile","AL","","US","USA","","",""
"JSD Express & Sons Inc","FedEx","","Marcy","NY","","US","USA","","",""
"JSD Express Inc","FedEx","101 Candella Express Dr","Marcy","NY","13403","US","USA","","",""
"JSG Logistics Corp","FedEx","","Mesquite","TX","","US","USA","","",""
"JSJ Trucking Inc","FedEx","155 Treeside drive","Mooreville","MS","38857","US","USA","John Smith Jr","",""
"K Downey Logistics Inc","FedEx","7965 Bramwell Park","Victor","NY","14564","US","USA","","",""
"K.I.K. Transport Inc","FedEx","","Baton Rouge","LA","","US","USA","","",""
"K.W.K Inc","FedEx","","Pulaski","VA","","US","USA","","",""
"KADE Logistics 1 Inc","FedEx","484 E Carmel Dr, #393","Carmel","IN","46032","US","USA","David Gray","",""
"Kai Coastal Inc","FedEx","","Ventura","CA","","US","USA","","",""
"Kairos Enterprises","FedEx","","Boise","ID","","US","USA","","",""
"KBH Contracting Services Inc","FedEx","2128 PARKWAY PLACE","Tyler","TX","75701","US","USA","","",""
"KD Transportation Inc","FedEx","","Plentywood","MT","","US","USA","","",""
"KDS Trucking","FedEx","1601 Brown Road","Lake Orion","MI","48632","US","USA","","",""
"KEB Logistics","FedEx","","Chicago","IL","","US","USA","","",""
"Kelsar Ventures Inc","FedEx","","Fennimore","WI","","US","USA","","",""
"Kemlyn Road Corporation","FedEx","110 Bridgewater Dr","Avon","CT","06001-4404","US","USA","Paul Griffiths","",""
"Kendall Services Inc","FedEx","4610 BRANSCOMB DR","Corpus Christi","TX","78411","US","USA","","",""
"Kinetic Logistics","FedEx","","Burlington","WA","","US","USA","","",""
"King Capital Transport Inc","FedEx","449 Knutson St, Unit A","Mapleton","ND","58059","US","USA","Josh Stenson","",""
"Kinlogistics Inc","FedEx","","Biddeford","ME","","US","USA","","",""
"KJKC LTD","FedEx","9765 198th Street W","Lakeville","MN","55044","US","USA","","",""
"KLW Inc","FedEx","","Livonia","MI","","US","USA","","",""
"KM Logistics","FedEx","","Katy","TX","","US","USA","","",""
"Kmans Inc","FedEx","","Hayward","CA","","US","USA","","",""
"Kmex Logistics","FedEx","","Hayward","CA","","US","USA","","",""
"KNF Solutions Inc","FedEx","","Grand Rapids","MI","","US","USA","","",""
"Knox Package Systems Inc","FedEx","","Knoxville","TN","","US","USA","","",""
"KODA Express Inc","FedEx","10601 CLARENCE DR STE 250","Frisco","TX","75033-3867","US","USA","","",""
"Kodiak Logistics","FedEx","","Philadelphia","PA","","US","USA","","",""
"Kore Logistics Inc","FedEx","","Exton","PA","","US","USA","","",""
"KPB Delivery Logistics Inc","FedEx","1025 SPRAGUE ROAD","Chemung","NY","14825","US","USA","","",""
"KR Freight Solutions Inc","FedEx","135 Anchuka Drive","Saltillo","MS","38866-5789","US","USA","Kelvin Monroe","",""
"Krismal Inc","FedEx","","Lansing","MI","","US","USA","Lyn Fournier","",""
"KSM Transportation Inc","FedEx","","Anniston","AL","","US","USA","","",""
"KSR Transport","FedEx","","Tallahassee","FL","32317","US","USA","","",""
"Kudu Transport Inc","FedEx","","Ladson Village","SC","","US","USA","","",""
"Kukla Logistics","FedEx","","Cudahy","WI","","US","USA","","",""
"Kustoms Service Inc","FedEx","","Greenleaf","WI","","US","USA","","",""
"L&N Delivery Inc","FedEx","28 COURT ST., APT. 13","Mansfield","MA","2048","US","USA","","",""
"Laina Logistics Inc","FedEx","607 Maris Run","Webster","NY","14580","US","USA","","",""
"Lake Express Inc","FedEx","17927 River Ford Dr","Davidson","NC","28036","US","USA","","",""
"Lakes Delivery Inc","FedEx","1488 KINGS VIEW DR","Grand Forks","ND","58201","US","USA","","",""
"Lakey Enterprises Inc","FedEx","","North Salt Lake City","UT","","US","USA","","",""
"Lambert Logistics","FedEx","","Madison","WI","","US","USA","","",""
"Last Mile Group","FedEx","","Chillicothe","OH","","US","USA","","",""
"Lastmile Delivery Solutions","FedEx","","Upper Marlboro","MD","","US","USA","","",""
"Lastmile Enterprises Inc","FedEx","","Gaithersburg","MD","","US","USA","","",""
"LBE Enterprises Inc","FedEx","","Humboldt","TN","","US","USA","","",""
"LCTI Inc","FedEx","","Austin","TX","","US","USA","","",""
"Legacy Logistics & Transportation","FedEx","","Knoxville","TN","","US","USA","","",""
"Legado Logistics","FedEx","","Knoxville","TN","","US","USA","","",""
"Lehigh Expeditors Inc","FedEx","16011 State Rd 60","Borden","IN","47106","US","USA","David Cooper","",""