DSP Name,Street Address,City,State/Province,Zip/Postal Code,Country,Region,Owner,LinkedIn,Email
"3G Logistics Inc","4326 68 Avenue Se","Calgary","AB","T2C 2T9","CA","Other","","",""
"3Sight Services Ltd","315 Manitou Rd Se","Calgary","AB","T2G 4C2","CA","Other","","",""
"Anderson Last Mile Inc","102 Ave Sw","Leduc County","AB","T0C 0V0","CA","Other","","",""
"Canwest Logistics Ltd","3675 11Th St","Nisku","AB","T9E 8J8","CA","Other","","",""
"Deliver Fast Logistics Ltd","7090 57 St Se","Calgary","AB","T2C 5B1","CA","Other","","",""
"Paranos Delivery Inc","3675 11Th St","Nisku","AB","T9E 8J8","CA","Other","","",""
"Rhay Logistics Inc","315 Manitou Rd Se","Calgary","AB","T2G 4C2","CA","Other","","",""
"Blue Dart Logistics Inc","7090 57 St Se","Calgary","AB","T2C 5B1","CA","Other","","",""
"Day 1 Logistics LLC","413 16Th St North","Birmingham","AL","35203","US","USA","Elvis Kennedy Kennedy","",""
"Dream Team Delivery LLC","1732 Ml King Jr Blvd","Tuscaloosa","AL","35401","US","USA","Raeann Hill","",""
"Front Runner Logistics LLC","812 Castlewood Ave","Birmingham","AL","35206","US","USA","Charlotte Jennings","",""
"Gateway Logistics Alabama LLC","7600 Crestwood Blvd","Irondale","AL","35210","US","USA","","",""
"JJ&G Logistics LLC","6450 Trippel Rd","Theodore","AL","36582","US","USA","Joseph Westfall","",""
"Johnson Express Transportation LLC","945 Schilinger Rd South Unit 504","Mobile","AL","36695","US","USA","Willie Johnson","",""
"KayDan Logistics LLC","4358 Old Shell Rd","Mobile","AL","36608","US","USA","Carlene Morrison","",""
"KMG Solution LLC","104 Sunbriar Ct","Madison","AL","35756","US","USA","","",""
"Logistics Plus Alabama","7600 Crestwood Blvd","Irondale","AL","35210","US","USA","","",""
"Paragon Logistics LLC","117 S. Lexington St. Ste # 100","Harrisonville","MO","64701","US","USA","","",""
"Max Transport LLC","2100 Southbridge Pkwy Suite 650","Manager","AL","35209","US","USA","John Cotton","",""
"RapidRoute Logistics LLC","16 Watson Grande Way Se","Owens X Rds","AL","35763","US","USA","William E Morgan","",""
"BreakThru Logistics LLC","7600 Crestwood Blvd","Irondale","AL","35210","US","USA","","",""
"Somers Haus of Logistics LLC","201 20Th St N, Suite 510","Birmingham","AL","35203","US","USA","Quanetta McNeal","",""
"Banyan Deliveries LLC","220 Ouachita 376","Camden","AR","71701","US","USA","","",""
"KHKW Logistics LLC","68 Laval Cir","Little Rock","AR","72223","US","USA","Sharon D Wilson","",""
"Mo/Go Logistics","12401 I 30","Little Rock","AR","72209","US","USA","","",""
"P3 Elite Logistics LLC","315 S L Incoln St","Lowell","AR","72745","US","USA","Gregory Plunkett","",""
"Quaddra Logistics LLC","14668 Skyline Dr","Alexander","AR","72002","US","USA","Rudy De Wulf","",""
"Sparkle Logistics LLC","5204 W Village Pkwy Ste 11 Pmb 111","Rogers","AR","72758","US","USA","Anna Jones","",""
"Top Priority Cargo Inc","315B S L Incoln St","Lowell","AR","72745","US","USA","Patricia Vizcarrondo","",""
"MET Transportation Services LLC","650 Maple St","Forrest City","AR","72335","US","USA","Tiffany Hardrick","",""
"A2Zoom LLC","11014 West Clover Way","Avondale","AZ","85392","US","USA","Matt Coffey","",""
"Alpha Zulu Transportation LLC","14103 S 179Th Ave","Goodyear","AZ","85338","US","USA","Freddy Alvarez","",""
"AVTS Management Inc","1239 E Krista Way","Tempe","AZ","85284","US","USA","Jeffrey Scott Attarian","",""
"Burst Logistics","2050 E Riverview Dr","Phoenix","AZ","85034","US","USA","Brady Bankson","",""
"Complete Logistics Solutions LLC","7875 W Buckeye Rd","Phoenix","AZ","85043","US","USA","Gabriel G Garcia","",""
"Connect Training and Logistics LLC","6819 E Mission St","Yuma","AZ","85365","US","USA","Shawn Leigh Wofford","",""
"Count On Horist","7326 E Placita Antigua","Tucson","AZ","85710-3706","US","USA","Christopher J Horist","",""
"Desert Compass Logistics LLC","500 West Pinnacle Peak Road","Phoenix","AZ","85027","US","USA","Jeffrey Moore","",""
"Desert Mountain Logistics LLC","1626 E Ranch Rd","San Tan Vly","AZ","85140","US","USA","Steven Wilson","",""
"Final Mile Delivery LLC","24850 N 19Th Ave","Phoenix","AZ","85085","US","USA","William C Spata","",""
"Garces Logistics LLC","9375 E Shea Blvd Suite 100","Scottsdale","AZ","85260","US","USA","Adrian Garces","",""
"GTGS Prime Logistics LLC","313 North Gilbert Rd, Ste 300","Gilbert","AZ","85234","US","USA","LaTosha M Sumpter","",""
"HawSaw Inc","1929 E Ray Rd Suite 4","Chandler","AZ","85225","US","USA","Michael Sawka","",""
"Henning Logistics Inc","17557 W Bent Tree Dr","Surprise","AZ","85387","US","USA","Nicole Henning","",""
"Janway Logistics LLC","10771 W Woodland Ave","Avondale","AZ","85323","US","USA","Dwayne Stewart","",""
"JO Logistics LLC","1629 E Babbit Ln","San Luis","AZ","85349","US","USA","","",""
"Kartable Logistics LLC","3333 S 59Th Ave","Phoenix","AZ","85043","US","USA","Mario Smith","",""
"L&F Delivery Service Inc","19820 N 21St St","Phoenix","AZ","85024","US","USA","Leroy B Watson","",""
"LCM Logistics LLC","3202 S 40Th St Ste#7","Phoenix","AZ","85040","US","USA","Lexie Mutcherson","",""
"Lime Logistics LLC","41739 N 112Th Pl","Scottsdale","AZ","85262","US","USA","Sharon Barnes","",""
"Ludicrous Speed Logistics LLC","3405 S Mcqueen Rd","Chandler","AZ","85286","US","USA","Carlos Rodriguez","",""
"MCQ6 Logistix LLC","2225 W Pecos Rd Ste 4","Chandler","AZ","85224","US","USA","William McKusick","",""
"MJ & AD DSP LLC","2733 N Power Rd Suit 102-434","Mesa","AZ","85215","US","USA","Shawn Moore","",""
"No Hudl Inc","1228 E Brookwood Ct","Phoenix","AZ","85048","US","USA","Michael D Cooley","",""
"On-Demand Logistics Service LLC","11202 N 78Th Dr","Peoria","AZ","85345","US","USA","Robera Kassim","",""
"Packages LLC","3405 S. Mcqueen Rd.","Chandler","AZ","85286","US","USA","Michele Gonzalez-Pitek","",""
"Perfect Strike Delivery LLC","18317 W Ida Ln","Surprise","AZ","85387","US","USA","Brenda Burns","",""
"Pinpoint Logistics LLC","11445 E Via Linda Ste 2525","Scottsdale","AZ","85259","US","USA","Timothy Woodyard","",""
"Pro Delivery LLC","8016 S 32Nd Way","Phoenix","AZ","85042","US","USA","Aymen Abdelhabib","",""
"SAAM Delivers LLC","8255 E Thomas Rd","Scottsdale","AZ","85251","US","USA","Angelo Esposito","",""
"Safe Generation Logistics and Transportation LLC","13212 W Rovey Ave","Litchfield Pk","AZ","85340","US","USA","Fred Anane","",""
"SS Legacy Logistics LLC","7251 W Broadway Rd","Phoenix","AZ","85043","US","USA","Alvin McKinley","",""
"Technocracy Logistics LLC","2820 S Alma School Rd Ste 18-405","Chandler","AZ","85286","US","USA","Christian Anthony Romero","",""
"Trifecta Logistics LLC","3030 S 40Th Street","Phoenix","AZ","85040","US","USA","Donna Reed","",""
"Valleywide Logistics Inc","8194 W Deer Valley Rd 106-229","Peoria","AZ","85382","US","USA","Amber Guida","",""
"Verve Carriers LLC","4711 N Camino Real","Tucson","AZ","85718","US","USA","Tom Ranalli","",""
"CoyoAZ Deliveries LLC","39506 N Daisy Mountain Dr Ste 122 Box104","Anthem","AZ","85086","US","USA","Tarah Myers","",""
"2ezy LLC","4020 W Lynne Ln","Phoenix","AZ","85041","US","USA","Cassidy Glover","",""
"Upper House Logistics LLC","64 E Broadway Rd Ste 200","Tempe","AZ","85282-1377","US","USA","Latina Baxter","",""
"LMN Express LLC","1516 W 17Th Str","Tempe","AZ","85281","US","USA","Wael Yaziji","",""
"Mercury Logistics LLC","2820 S Alma School Rd Ste 18-234","Chandler","AZ","85286","US","USA","Ruby Escarcega","",""
"LulaZon LLC","2237 E Virginia Ave","Phoenix","AZ","85006","US","USA","Charlene Lula","",""
"HMD Services LLC","13201 N Litchfield Rd","Suprise","AZ","85338","US","USA","Holly Baker-DaCorsi","",""
"CCL Transportation Ltd","9899 Mcdonald Park Rd","Sidney","BC","V8L 5W5","CA","Other","","",""
"Danfoss Couriers & Freight Delta","7400 Vantage Way","Delta","BC","V4G 1H1","CA","Other","","",""
"Deleezy Logistics Global Corporation","18880 30 Ave","Surrey","BC","V3S 9V5","CA","Other","","",""
"En Route 24/7 Logistics Inc","9788 Glenlyon Pkwy","Burnaby","BC","V5J 0C6","CA","Other","","",""
"Otto Logistics Inc","9899 Mcdonald Park Rd","Sidney","BC","V8L 5W5","CA","Other","","",""
"ParcelPal Logistics Inc","19100 Airport Way","Pitt Meadows","BC","V3Y 2M5","CA","Other","","",""
"Rev Courier Services Ltd","7400 Vantage Way","Delta","BC","V4G 1H1","CA","Other","","",""
"Run-It Logistics","5636 272 St","Langley","BC","V4W 3X1","CA","Other","","",""
"Vavaa Distribution Ltd","18880 30 Ave","Surrey","BC","V3S 9V5","CA","Other","","",""
"Wyngit Delivery Inc","1453 East Georgia Street","Vancouver","BC","V5L 2A9","CA","Other","","",""
"4Ks Investments LLC","1320 Willow Pass Rd Ste 600","Concord","CA","94520","US","USA","Godlisten Lyimo","",""
"A-Team Delivers LLC","12127 Mall Blvd Suite A #322","Victorville","CA","92392","US","USA","Steve Ford","",""
"A41 Logistics LLC","807 N Mccarthy Blvd","Milpitas","CA","95035","US","USA","","",""
"AA Logistics LLC","8384 Edgewood Street","Chino","CA","91708","US","USA","Andres W Anzoategui","",""
"ABC Connect Logistics","218 W Cummings St","Long Beach","CA","90805","US","USA","Alfred James McCloud","",""
"Accelerated-Logistics LLC","909 21St St Apt 2","Santa Monica","CA","90403","US","USA","Pouya Mohammad Yousef","",""
"ACES Courier Services LLC","8698 Elk Grove Blvd Ste 1-226","Elk Grove","CA","95624","US","USA","Angel Cacho","",""
"ACLO Solutions LLC","2058 Christie St","Fullerton","CA","92833","US","USA","Alexander Chai","",""
"Acme Freight","343 Soquel Ave 111","Santa Cruz","CA","95062-2355","US","USA","John Battista","",""
"Activ Enterprises LLC","12841 Eveningside Dr","Santa Ana","CA","92705","US","USA","Michael James Kimball","",""
"Active Transportation Services LLC","9350 Rayo Ave","South Gate","CA","90280","US","USA","Jeff Doll","",""
"Advanced Carrier Services LLC","2447 Dulles Way","L Incoln","CA","95648-3027","US","USA","Jose Armando Abad-Hernandez","",""
"Agema Integrated Solutions LLC","27378 Red Ironbark Drive","Valley Center","CA","92082","US","USA","Michele LaBrecque","",""
"ALO-Platinum Logistics LLC","3250 Business Park Dr","Vista","CA","92081","US","USA","Arthur Ochoa","",""
"Alpha Express LLC","1071 E 45Th Way","Long Beach","CA","90807","US","USA","Tingyung Hsu","",""
"Alvarez Logistics Group LLC","601 Maclure Ave W","Madera","CA","93636","US","USA","Adolfo Alvarez","",""
"AmaZino Synergy Logistics LLC","1160 W Mishreki Pl","Anaheim","CA","92801","US","USA","Joseph Dabdoub","",""
"A-Zoom Delivery Service LLC","14901 Adelfa Dr #741","La Mirada","CA","90637","US","USA","Kirkwood Robert Bell","",""
"Amplio Logistics","5149 Lone Tree Way","Antioch","CA","94531-8688","US","USA","Erwin Damasen","",""
"Anane Enterprise LLC","8600 West Ln Spc 102","Stockton","CA","95210","US","USA","Felix Anane-Adjei","",""
"Andiamo Logistics Inc","15930 Valley Bl","City Of Industry","CA","91744","US","USA","Daniel Joseph Jovanelly","",""
"Anthem Delivery Services LLC","2995 Atlas Rd","Richmond","CA","94807","US","USA","Lamont Smith","",""
"Archers Fleet LLC","1547 Palos Verdes Mall #108","Walnut Creek","CA","94597","US","USA","Javkhlan Munkhnasan","",""
"Arkwins Logistics LLC","6939 Shaefer Ave Suite D307","Chino","CA","91710","US","USA","Chuen Sing Chen","",""
"Armada Shipping LLC","5650 Dolly Ave","Buena Park","CA","90621","US","USA","David M Escobar","",""
"ARMM Logistics Corp","533 Airport Blvd Ste 400","Burlingame","CA","94010","US","USA","Michelle Bennett","",""
"Arrowhead Logistics LLC","7227 Central Ave","Riverside","CA","92504","US","USA","Lauren Shaw","",""
"Asher Logistix Inc","115 S Palm Ave","Ontario","CA","91762","US","USA","Damien M Melle","",""
"Asmile Logistics","44109 Pacific Commons Boulevard","Fremont","CA","94538","US","USA","Gulan Zhang","",""
"Assurance Logistics","5720 Havencrest Cir","Stockton","CA","95219","US","USA","Andre Lamonte Secrease","",""
"Aventer Services LLC","260 Segovia Place","Fremont","CA","94539","US","USA","Rajan S Vrittamani","",""
"Bakersfield DSP LLC","7601 Meadows Of The Kern Dr","Bakersfield","CA","93308","US","USA","Terri R Chamberlin","",""
"Bay Area Trusted Logistics LLC","6015 Giant Highway","Richmond","CA","94806","US","USA","Lyn-Tise Jones","",""
"Beacon Logistics LLC","6992 Haigh Road","Orland","CA","95963","US","USA","","",""
"Beeline Logistics LLC","3175 Mission Oaks Blvd","Camarillo","CA","93012","US","USA","John N Njoroge","",""
"Beeontime Logistics LLC","13120 Old West Avenue","San Diego","CA","92129","US","USA","Sukhdeep Kapoor","",""
"Bereket Routes LLC","3015 E Ana St","Compton","CA","90221","US","USA","Helen Asefa","",""
"BG Last Mile LLC","4490 Discovery Pt","Discovery Bay","CA","94505-9468","US","USA","Gerusa B Oliveira","",""
"Bigfoot Delivery LLC","3017 Douglas Blvd Ste 300","Roseville","CA","95661","US","USA","Ryan Jay Blackstone","",""
"Blue Hill LLC","640 S Curson Ave","Los Angeles","CA","90036","US","USA","Anthony Holland","",""
"Bluejay Delivery LLC","32442 Celeste Ct","Union City","CA","94587","US","USA","Prabhjot Singh","",""
"Boxed Out LLC","1760 Ancona Ct","Concord","CA","94519","US","USA","Derrick Shelton","",""
"Brown Logistics LLC","28820 W Chase","Valencia","CA","91355","US","USA","Kenneth Brown","",""
"C&T Logistics LLC","9530 Rayo Ave","South Gate","CA","90280","US","USA","","",""
"Cadinha Logistix LLC","5623 Blackrock Rd","Rocklin","CA","95765","US","USA","Darrell Cadinha","",""
"Cali Shipping Inc","138 North Brand Avenue Suite 200 Unit 168","Glendale","CA","91203","US","USA","Cantrell Harris","",""
"Cargeau Limited Liability Company","2644 San Carlos Dr","Walnut Creek","CA","94598","US","USA","Rebeccah Rybalsky","",""
"Carter Saco Logistics","28820 Chase Place","Valencia","CA","91355","US","USA","Diego Saco","",""
"Carter Shipping Services LLC","20844 Fallen Leaf Road","Yorba Linda","CA","92886","US","USA","Joshua Carter","",""
"Carthago Logistics","2815 W El Segundo Blvd","Hawthorne","CA","90250","US","USA","Najet Attar","",""
"Casa Logistics LLC","1403 Jinette","San Clemente","CA","92673","US","USA","Chasen Brown","",""
"Cedar Logistics","14952 Bolsa Chica St","Huntington Beach","CA","92647","US","USA","Aaron Jordan Steele","",""
"CenCal Delivery LLC","21885 Eastmere Ln","Friant","CA","93626-9754","US","USA","Rajpreet Sra","",""
"Coastal Concord Logistics LLC","9051 Union Park Way","Elk Grove","CA","95624","US","USA","Terrance McCray Sr","",""
"Commute Is Great Logistics LLC","35750 Date Palm Drive","Cathedral City","CA","92234","US","USA","James Armstrong Jr","",""
"Cooper Logistics LLC","14311 Shadybrook Drive","Tustin","CA","92780","US","USA","Barry W Cooper","",""
"Cornerstone Delivery Service","5505 Via San Jacinto","Riverside","CA","92506","US","USA","Brian Concannon","",""
"Cornerstone Delivery Transfer","16550 Via Esprillo","San Diego","CA","92127","US","USA","","",""
"Crew Point Logistics LLC","623 Windsor St","Santa Cruz","CA","95062-2452","US","USA","Brad Dancy","",""
"Crunch Time Logistics LLC","2637 E Villa St","Pasadena","CA","91107","US","USA","Richard Briggs","",""
"CW Convenient Couriers LLC","6250 Sycamore Canyon Boulevard","Riverside","CA","92507","US","USA","Christopher Williams","",""
"Cynergy Logistics","3001 Mission Oaks Blvd","Camarillo","CA","93012","US","USA","Ryan Wieler","",""
"D6 Logistics LLC","12392 Feather Dr","Eastvale","CA","91752","US","USA","Tamara Williams-Dobson","",""
"Dakata LLC","44051 Osgood Rd","Fremont","CA","94939","US","USA","Darryl Whitehead","",""
"Dawson Delivery","27240 Turnbery Ln Ste 200","Valencia","CA","91355","US","USA","David Dawson","",""
"Deegan Express","5502 W 138Th St","Hawthorne","CA","90250","US","USA","William Deegan","",""
"Deliver With Care Inc","44208 Pacific Commons Blvd","Fremont","CA","94538","US","USA","Kenneth Bailey","",""
"Delivered USA Inc","6122 Saint Andrews Way","Livermore","CA","94551","US","USA","Mehran Adnani","",""
"On-Time Delivery Services","34 Palmer Green Ct","Baltimore","MD","21210","US","USA","Ziad Rida","",""
"Delivery Response On-Time Parcel LLC","5440 E Olive Ave","Fresno","CA","93727","US","USA","Lisa Watt","",""
"DHB Delivery LLC","1134 N Chestnut Ln","Azusa","CA","91702","US","USA","Daniel R Bourgault","",""
"Di Sante Transportation And Logistics LLC","9080 Bloomfield Ave Spc 84","Cypress","CA","90630-6948","US","USA","Amber Martinez","",""
"Dimes Logistics LLC","140 B St Ste 5 Pmb 284","Davis","CA","95616","US","USA","Vergus Wayne Davis","",""
"Dimo Gigi Logistics","16550 Via Esprillo","San Diego","CA","92127","US","USA","Peter Miller","",""
"DiPietro Enterprises LLC","9547 Estates Dr","Gilroy","CA","95020-9189","US","USA","Mike A DiPietro","",""
"Directpro Logistics LLC","14901 Adelfa Dr Unit 1619","La Mirada","CA","90637","US","USA","Debbie Comstock","",""
"DJI Delta Logistics LLC","745 Marjoram Dr","Brentwood","CA","94513","US","USA","Derry Anderson","",""
"DLF Logistics LLC","7610 Beverly Blvd. #0434","Los Angeles","CA","90048","US","USA","Durran Felton","",""
"Do It Fast LLC","2930 Castro St","Martinez","CA","94553","US","USA","Daniel Chavarria","",""
"Doodle Deliveries LLC","3952 Shasta Ave","Los Alamitos","CA","90720-2252","US","USA","Mike Coil","",""
"Drakaina Logistics","958 Ryan Ave","Clovis","CA","93611-3423","US","USA","Karen Eoff","",""
"Drop N’ Go Deliveries","832 W Service Ave","West Covina","CA","91790-3716","US","USA","Vinh Do","",""
"DXS Logistics LLC","8504 Firestone Blvd # 249","Downey","CA","90241","US","USA","Taisha Walker","",""
"Dynamik XP LLC","176 W Ridgewood","Long Beach","CA","90805","US","USA","Samuel Chris Yates","",""
"Eagle Eye Express LLC","4000 Wilbur Ave","Oakley","CA","94561","US","USA","Laverne Bryant","",""
"East Bay Cargo LLC","300 Boone Dr","American Cyn","CA","94503","US","USA","Todd Carlson","",""
"Eloka Logistics LLC","4635 Park Arcadia Dr","San Jose","CA","95136","US","USA","Eugene Okafor","",""
"Elsa Logistics LLC","7214 Fallbrook Ave","West Hills","CA","91307","US","USA","Mahan Karimian","",""
"Envizion Logistics","1740 E Garry Ave Ste 107","Santa Ana","CA","92705","US","USA","Bassil Dabdoub","",""
"Epic Lightning Fast Service LLC","6227 Lake Athabaska Pl","San Diego","CA","92119","US","USA","Susan Davis","",""
"Everest Ops","142 N Milpitas Blvd # 224","Milpitas","CA","95035","US","USA","Mohammad Awadalla","",""
"Evoura LLC","807 N Mccarthy Blvd","Milpitas","CA","95035","US","USA","Safi Haidary","",""
"Express Ave Logistics Inc","6916 Alcove Ave","N Hollywood","CA","91605","US","USA","Peter Keshishyan","",""
"Express Transportation Services LLC","6900 Bissell St","Huntington Pk","CA","90255","US","USA","Victor Hugo Caballero","",""
"Extender Express LLC","850 S Orchard Ave","Vacaville","CA","95688-6906","US","USA","Paul Grotke","",""
"EZ Logistix LLC","15930 Valley Boulevard","La Puente","CA","91744","US","USA","Nader Obeid","",""
"F4 Logistics LLC","3370 E La Palma Ave","Anaheim","CA","92806","US","USA","Ryan Fleming","",""
"Falcon Last Mile Inc","19 Santa Clara Ct","San Rafael","CA","94903-3729","US","USA","Yevgeny Voloshin","",""
"Fast Apple Logistics","520 N Ventu Park Rd 151","Newbury Park","CA","91320","US","USA","Jeff Theiler","",""
"Fast Trips LLC","4900 Hopyard Rd Ste 100","Pleasanton","CA","94588","US","USA","Sam Warutere","",""
"Five Point Logistics LLC","4841 W San Fernando Rd","Los Angeles","CA","90039","US","USA","Wesley Crown","",""
"Fleet Force LLC","9701 Dino Drive Suit 180","Elk Grove","CA","95624","US","USA","Omar Ahmad","",""
"Flying Squirrel Delivery LLC","6015 Giant Rd","Richmond","CA","94806","US","USA","Victor Jigalin","",""
"Footsteps LLC","1551 Citation Way","Hollister","CA","95023","US","USA","Kumar Vijayendra","",""
"Full Scale Logistics LLC","2722 Rocky Point Ct","Thousand Oaks","CA","91362-4943","US","USA","Geoffrey Infeld","",""
"G Logistics LLC","6015 Giant Highway","Richmond","CA","94806","US","USA","Wendy Gee","",""
"Gateway Shipping Inc","8972 La Cintura Ct","San Diego","CA","92129","US","USA","Uzochukwu Okolo","",""
"GlobX Parcel Logistics LLC","1615 Christina Dr","Los Altos","CA","94024-6245","US","USA","Arjun Reddy","",""
"Gravity Hill Logistics LLC","900 W Sierra Madre Ave Apt 109","Azusa","CA","91702-6012","US","USA","Jermaine Lee","",""
"GRT Logistics LLC","2751 Skypark Drive","Torrance","CA","90505","US","USA","Gina Temple-Culberson","",""
"GT Elite Logistics LLC","29710 Edgemere Way","Menifee","CA","92584","US","USA","Fabian Gomez","",""
"GT Unlimited LLC","10650 Mcbroom St","Sunland","CA","91040","US","USA","Arturo C Rodriguez","",""
"Hansl Delivery Service","13027 Victory Blvd Unit 426","N Hollywood","CA","91606-2925","US","USA","Hayk Gasparyan","",""
"Happy Travels Delivery","8311 Rockport Dr","Bakersfield","CA","93312","US","USA","Miguel A Gerardi","",""
"Hedwig Xpress LLC","1300 Fountain Springs Circle","Danville","CA","94526","US","USA","Ahmad Razaq","",""
"Hi 5 Express Delivery LLC","44109 Pacific Commons Blvd","Fremont","CA","94538","US","USA","Gautam Chanda","",""
"High Performance Logistics LLC","7227 Central Ave","Riverside","CA","92504","US","USA","Michael Waters","",""
"HK Logistics LLC","15272 Bear Valley Rd","Victorville","CA","92395","US","USA","Tamara Reyes","",""
"Hudson Logistics LLC","1530 Indiana Ave","S Pasadena","CA","91030","US","USA","Jason Ovshak","",""
"Hummingbird Logistics LLC","5443 Loganberry Way","Oceanside","CA","92057","US","USA","Charles Choate","",""
"IMUA Express LLC","17017 Albert Ave","San Diego","CA","92127","US","USA","Christopher Staal","",""
"Inner City Logistics LLC","678 W Refinado Way","Mtn House","CA","95391","US","USA","Ronald E Iraheta Dubon","",""
"Intrepid Delivery LLC","174 Lawrence Dr Ste A","Livermore","CA","94551","US","USA","Weston D Cook","",""
"J & J Prime Delivery","105 Landsdowne Loop","San Ramon","CA","94582","US","USA","","",""
"J Cavari Delivery Inc","225 South Lake Ave Ste 300","Pasadena","CA","91101","US","USA","Vardui Kasabyan","",""
"JAC Logistics LLC","1750 Prairie City Rd Ste 130","Folsom","CA","95630","US","USA","Cornell Campbell","",""
"JBC Express Corporation","1551 Citation Way","Hollister","CA","95023","US","USA","Justin Chigozie Obilo","",""
"JDM Deliveries Inc","802 Cotter Ave","Duarte","CA","91010","US","USA","Jaime Moreno","",""
"JG3 Logistics LLC","30142 Lamplighter Ln","Menifee","CA","92584","US","USA","Jacob Green","",""
"JJRGA Express Delivery Inc","901 Bay Marina Dr","National City","CA","92596","US","USA","John Pena","",""
"JRE Logistics LLC","825 Kuhn Dr Suite 105","Chula Vista","CA","91914","US","USA","Rubén Esteban Padilla","",""
"JSB Logistics Corporation","6224 Gran St","Chino","CA","91710","US","USA","Carin Marie Schaller","",""
"JT&T Delivery Service Partner LLC","2035 Broadland Ave","Duarte","CA","91010","US","USA","","",""
"KAL Delivery LLC","4836 Trail Run Ct","San Jose","CA","95136-3433","US","USA","Roger Moradi","",""
"Kavac Logistics LLC","9350 Rayo Ave","South Gate","CA","90280","US","USA","Pedro Alfonso Mangiamarchi","",""
"KMB Concepts LLC","13319 Poway Rd #352","Poway","CA","92064","US","USA","Krista M Gunderson","",""
"Knock Logistics LLC","4790 Irvine Blvd Ste 105-483","Irvine","CA","92620","US","USA","Mohib Hamidi","",""
"Kool Runnings LLC","2223 F Inch Cir","San Jacinto","CA","92582-6964","US","USA","Roland Sinclair","",""
"Kotak Express LLC","1063 Feather Circle","Clayton","CA","94517","US","USA","Tani Radev","",""
"L&M Logistics Group Inc","626 West Lancaster Blvd #67","Lancaster","CA","93534","US","USA","Marlon Wells","",""
"Lacedaemon Distributions LLC","31805 Temecula Pkwy Ste D7-219","Temecula","CA","92592","US","USA","Leo Lechuga","",""
"Last Piece Logistics LLC","1676 N Renn Ave","Clovis","CA","93619","US","USA","Harjinder S Saini","",""
"Last Stop Logistics LLC","3825 Venus Ct","San Jose","CA","95121","US","USA","Lew Chavez","",""
"Laudei","248 W Bissell Ave","Richmond","CA","94801","US","USA","Aaron Heath Holm","",""
"Leading Edge Logistix LLC","1895 Marigold Ave","Redlands","CA","92374","US","USA","Sean Redwine","",""
"Lear Logistics","16550 Via Esprillo","San Diego","CA","92127-1708","US","USA","Stephanie Sanchez Navarro","",""
"Linked Logistics Services LLC","6450 Katella Ave","Cypress","CA","90630","US","USA","Houssam Yasin","",""
"Local Delivery Service LLC","4609 W Durham Ferry Rd","Tracy","CA","95304-9362","US","USA","Naqib Shokoor","",""
"Logic Logistics and Delivery Services Inc","8726 S Sepulveda Blvd D638","Los Angeles","CA","90045","US","USA","Marcelo Magalha","",""
"M and S Enterprise LLC","5007 Allegheney Ct","Los Angeles","CA","90056","US","USA","Evora Russell","",""
"M Star Shipping Corp","533 Airport Blvd Ste 400","Burlingame","CA","94010","US","USA","Issa Moussa","",""
"MA1 Logistics Inc","16550 Via Esprillo","San Diego","CA","92127","US","USA","Yousef Abraham","",""
"Made It Logistics LLC","1415 Shadow Hills Dr","San Marcos","CA","92069","US","USA","David Temores","",""
"Magic Mile LLC","14500 Kirkham Way","Poway","CA","92064","US","USA","Maggie Holland","",""
"Magnificent Mile Logistics LLC","934 Chamise Dr","Salinas","CA","93905","US","USA","Jacqueline Serrato","",""
"Mamba Logistics Inc","3746 Foothill Blvd 7088","Glendale","CA","91214","US","USA","Danisha Wrighster","",""
"Maps Services Inc","3952 Banyan St","Irvine","CA","92606","US","USA","Atul Raj","",""
"Marathon Logistic Partners LLC","39899 Balentine Drive Suite 200","Newark","CA","94560","US","USA","Bernita Dillard","",""
"Marine and Co Logistics LLC","35641 Avenue 14 1/2","Madera","CA","93636","US","USA","Raul Magana","",""
"Martinez Ontime Parcel Inc","3727 W Magnolia Blvd Unit 216","Burbank","CA","91505","US","USA","Marcos Martinez","",""
"MeLogistix Inc","5651 W Pico Blvd Ste 205","Los Angeles","CA","90019-3870","US","USA","Scott Langley","",""
"Mercury Transport & Logistics LLC","7812 Anise Ave","Los Angeles","CA","90045-1107","US","USA","Erica Bronner Acker","",""
"Metro Deliveries & Logistics LLC","15930 Valley Blvd","City Of Industry","CA","91744","US","USA","Damion R Gillespie","",""
"Miracle Smile Delivery Inc","4841 West San Fernando Rd","Los Angeles","CA","90039","US","USA","Norvan Zargarian","",""
"Modern Routes LLC","7013 Melrose Ave","Los Angeles","CA","90038","US","USA","Shahan Choudhury","",""
"Momentum Logistics LLC","2995 Atlas Road","Richmond","CA","94806","US","USA","Douglas McIntosh","",""
"Moosty Express LLC","225 N Mccarthy Blvd","Milpitas","CA","95035","US","USA","Mustafa Sayed Omran","",""
"MOR Distribution LLC","7516 Haystak Loop","Reiverside","CA","92507","US","USA","Alejandro Moreno","",""
"MorBro Logistics","20730 Prairie Street","Chatsworth","CA","91311","US","USA","Jennifer Morgan","",""
"Mosaic Supply Chain Solutions","1721 Old Bayshore Hwy","San Jose","CA","95112","US","USA","Donald Cheng","",""
"Motaur Express Inc","3001 Mission Oaks Blvd","Camarillo","CA","93117","US","USA","James Hooshman","",""
"Motogistics Logistics Inc","1411 Whispering Wind Ln","Corona","CA","92881","US","USA","Janet Ellis-Womack","",""
"Neal Prasad","7601 Foothills Blvd","Roseville","CA","95747-6644","US","USA","Narendra Prasad","",""
"New Era Delivery LLC","20780 Stony Brook Rd","Riverside","CA","92508","US","USA","Ernesto Franco","",""
"Next Stop Logistics LLC","3825 Venus Ct","San Jose","CA","95121","US","USA","Yazan Kesbeh","",""
"Northgate Consulting LLC","6173 Springvalley Drive","Atwater","CA","95301","US","USA","Mark Margison Allen","",""
"OC Delivery Direct LLC","25725 Jeronimo Rd","Mission Viejo","CA","92691","US","USA","Karin Erenk Bartal","",""
"On Courier 365","60 98Th Ave Suite 101","Oakland","CA","94603","US","USA","Muhammad Waheed Farzand","",""
"On the Spot Transportation LLC","10277 Jennick Way","Elk Grove","CA","95757-1603","US","USA","Alex Kiruja","",""
"Onyx Venus Global LLC","985 Griffin Dr","Vallejo","CA","94589-4340","US","USA","Nicola Lorraine Fleming","",""
"Pacific Keys Logistics LLC","23891 Via Fabricante Ste 606","Mission Viejo","CA","92691","US","USA","Mike Vu Tran","",""
"PacTrack Inc","11135 Rush St Ste A","South El Monte","CA","91733","US","USA","Raul Micheal Vega","",""
"Paolino Logistics LLC","5221 Cortland St","Lynwood","CA","90262","US","USA","David Paolino","",""
"PDQ Logistics","433 N Camden Dr Ste 600","Beverly Hills","CA","90210-4416","US","USA","Stephen Sanchez","",""
"Piranha Ops LLC","1625 The Alameda Ste 525","San Jose","CA","95126","US","USA","Ricardo Santo Cornejo","",""
"Plan B Advantage Inc","400 W Ocean Blvd Unit 1403","Long Beach","CA","90802","US","USA","Keith Daniels","",""
"Presidio Logistics LLC","52 Summerland Cir","Aliso Viejo","CA","92656","US","USA","Robert T Barnes","",""
"Pride On Point LLC","3620 Ramos Dr","W Sacramento","CA","95691","US","USA","Nicole Renee Stevenson MacDonald","",""
"Primary Express LLC","428 J St # 4Th Floor","Sacramento","CA","95814","US","USA","Omar Ahmad","",""
"Prime Global Express Inc","26565 Agoura Road Suite 200","Calabasas","CA","91302","US","USA","Christina Galstian","",""
"Prolific Logistics LLC","1895 Marigold Ave","Redlands","CA","92374","US","USA","Jay Christian Cohen","",""
"Pyramid Logistics Inc","4790 Irvine Blvd Ste 105","Irvine","CA","92620","US","USA","Injy Bassam","",""
"Quick Trip Delivery LLC","8973 Svl Box","Victorville","CA","92395","US","USA","Arash Momeni","",""
"Quick6 Delivery Inc","5098 Foothills Blvd #3-471","Roseville","CA","95747","US","USA","David Ruslin","",""
"Quik Delivery LLC","300 Boone Dr","Napa","CA","94558","US","USA","Gurjit Kaur","",""
"QX Logistix LLC","5685 Alcoa Avenue","Vernon","CA","90058","US","USA","Christopher Carey","",""
"Radin Logistics LLC","23 Ivanhoe","Irvine","CA","92606","US","USA","Reza Rahimi","",""
"Ready 2 Deliver Logistics LLC","7227 Central Ave","Riverside","CA","92504","US","USA","Jeff Darensbourg","",""
"Ready 2 Go Logistics LLC","2150 N 1St St Suite 457","San Jose","CA","95131","US","USA","Timothy B Guess","",""
"Relay Logistics","1281 9Th Ave # 1418","San Diego","CA","92101","US","USA","Adrian Giurgiu","",""
"Revival Logistics LLC","3521 Florine Ave","Jurupa Valley","CA","92509","US","USA","David Sanchez-Sanchez","",""
"Rhyno Logistics Inc","14011 Ventura Blvd Ste 302","Sherman Oaks","CA","91423","US","USA","Eliezer Martizfigueroa","",""
"Riverlane Logistics LLC","1243 S Olive St Apt 559","Los Angeles","CA","90015","US","USA","Jenny Jean-Michel","",""
"Road Runner Delivery LLC","47000 Warm Springs Blvd Ste 1","Fremont","CA","94539","US","USA","","",""
"RonKar Deliveries LLC","300 Boone Dr","American Cyn","CA","94503","US","USA","Ronnie Henry","",""
"Route 64 Logistics LLC","5221 Cortland St","Lynwood","CA","90262","US","USA","Manuel Roque","",""
"Running With Lions Logistics LLC","10531 4S Commons Dr Ste 166-676","San Diego","CA","92127","US","USA","Antoine McCall","",""
"Saba Couriers LLC","1123 Allen Ave 7","Glendale","CA","91201","US","USA","Jose Pineda","",""
"SaBSaF LLC","3250 Business Park Dr","Vista","CA","92081","US","USA","","",""
"Salim Logistics LLC","1300 Matterhorn Dr","Riverside","CA","92506","US","USA","Mike Salim","",""
"Sam’s Delivery Service LLC","950 Francisco St","Torrance","CA","90502","US","USA","Duke G Hendrickson","",""
"Santosa Delivery","8115 Delgany Avenue","Playa Del Rey","CA","90293","US","USA","Holly Culbreth","",""
"Sat Nam Express LLC","16350 Cayenne Ridge Rd","San Diego","CA","92127","US","USA","Tushar A Shah","",""
"SDK Logistics LLC","6992 Haigh Dr","Orland","CA","95963","US","USA","Sonja Killingsworth","",""
"Seacoast Delivery LLC","901 Bay Marina Dr","National City","CA","91950","US","USA","Holly Dasghaib","",""
"Shekinah Logistics LLC","2403 W Louise Ave","Manteca","CA","95337","US","USA","Earl A Smith","",""
"Shipmates LLC","4712 Admiralty Way # 121","Marina Dl Rey","CA","90292-6905","US","USA","Megel Brown","",""
"Simply Logistics LLC","4370 Jutland Dr","San Diego","CA","92117","US","USA","Calvin O’Neal Spivey","",""
"SJ Logistics LLC","6787 W Stuart Ave","Fresno","CA","93723","US","USA","Shari Gill","",""
"Smiles Delivery Service LLC","1510 Fashion Island Blvd Ste 300","San Mateo","CA","94404","US","USA","Yasmeen Mohamed","",""
"SMK Logistics LLC","26632 Towne Centre Drive Suite 300 Pmb #562","Foothill Ranch","CA","92610","US","USA","Srinivas Kundula","",""
"SoCal Deliveries LLC","25876 The Old Road Unit 112","Valencia","CA","91381","US","USA","Michael Cole Abbott-Whitley","",""
"South Bay Cargo LLC","225 N Mccarthy Blvd","Milpitas","CA","95035","US","USA","Mustafa Gurleroglu","",""
"South Bay Van Lines Inc","2419 Clark Ln Unit A","Redondo Beach","CA","90278-4423","US","USA","Jafar Mosleh","",""
"Speedy Express LLC","1175 Azusa Ct Ste 110 Attn 128","Rancho Cucamonga","CA","91730","US","USA","Kentrice Jones","",""
"Sterling Delivery & Logistics LLC","777 Silver Spur Rd Ste 136","Rllng Hls Est","CA","90274","US","USA","Steven R Traversi","",""
"Straight Shot Logistics LLC","1136 Soto Place","Placentia","CA","92870","US","USA","Randall Sotowa","",""
"SV Delivery LLC","1710 Little Orchard St","San Jose","CA","95125","US","USA","Anil Kumar","",""
"Symx Logistics","47003 Mission Falls Ct Apt 402","Fremont","CA","94539","US","USA","Balaj Bukhari","",""
"Synergy Plus Logistics LLC","12524 Benfield Ave","Norwalk","CA","90650","US","USA","Emmanuel Ndoumna","",""
"Synergy Shipping LLC","775 Bluegrass St","Simi Valley","CA","93065","US","USA","Danielle Winfield","",""
"Team G Logistics LLC","2 Corte Azul","Moraga","CA","94556-1530","US","USA","Lawrence Joseph Gilbert","",""
"Thoroughfare Logistics LLC","11988 Eastglen St","San Diego","CA","92131","US","USA","Patrick Klacka","",""
"Tip Top Parcel LLC","9350 Rayo Ave","South Gate","CA","90280-3613","US","USA","Zacharias Thrash","",""
"TLC Dash LLC","3550 Watt Ave Ste 140","Sacramento","CA","95821","US","USA","Dana Beards","",""
"To Be Delivered LLC","1529 Alice St Apt 210","Oakland","CA","94612","US","USA","Magruder Taylor","",""
"Torero Logistics Corp","160 Produce Avenue","South San Francisco","CA","94080-6801","US","USA","James Staffan","",""
"Trax Logistics Inc","10121 Vanalden Ave","Northridge","CA","91324","US","USA","Omar Kabir","",""
"Treeline Logistics","5978 Mission St","San Francisco","CA","94112-4036","US","USA","Boaz Mariles","",""
"United Global Parcel Service LLC","2181 N Tracy Blvd Pmb 224","Tracy","CA","95376","US","USA","William Mitchell","",""
"Urban Logistics","1162 San Mateo Ave","South San Francisco","CA","94080","US","USA","David A Uziel","",""
"Urban Partner Logistics LLC","2340 Powell St #386","Emeryville","CA","94608","US","USA","Julian Branch","",""
"Valli Logistics Inc","1710 Little Orchard Street","San Jose","CA","95125","US","USA","Ashwin Veeravalli","",""
"Vango Logistics LLC","16550 Via Esprillo","San Diego","CA","92127-1708","US","USA","Sammy Dabdoub","",""
"Verity Last Mile LLC","252 Galway Ln","Simi Valley","CA","93065","US","USA","Charlie Gastelum","",""
"Verve Last Mile LLC","17806 Coldwell Ct","Lathrop","CA","95330","US","USA","Donald Victor Jimenez","",""
"VX Logistics LLC","12189 Caminito Corriente","San Diego","CA","92128","US","USA","Christopher Mendoza","",""
"Way Maker Delivery LLC","9350 Rayo Ave","South Gate","CA","90280","US","USA","Jose Araiza","",""
"Wraplify LLC","179 Kerry Cmn","Fremont","CA","94536","US","USA","Ankit Bhatnagar","",""
"WZB Logistics LLC","1851 Sapra St","Thousand Oaks","CA","91362","US","USA","Chinwe Edomobi","",""
"Xpress Delivery Service Inc","1541 Lenox Dr","Modesto","CA","95350-0527","US","USA","Lois J Mawyer","",""
"Yeiroads Cargo Company LLC","12359 Primrose Ave","Whittier","CA","90602","US","USA","Frank Valencia","",""
"Yellow Brick Road Logistics","709 S Eliseo Dr","Greenbrae","CA","94904","US","USA","Joshua Szarek","",""
"Zealigent Logistics Inc","400 Longfellow St","Livermore","CA","94550","US","USA","Brandon Lee Hairston","",""
"Axios Logistics LLC","19355 Sherman Way Unit 33","Reseda","CA","91335","US","USA","Austin Meyer","",""
"WBX Logistics LLC","4401 Gateway Park Blvd Ste 130 340503","Sacramento","CA","95834","US","USA","Dorian Brown","",""
"Xpress Delivery LLC","319 Cameo Dr","Danville","CA","94526","US","USA","Rajesh Bansal","",""
"Gold Arrow Logistics LLC","600 W Technology Dr","Palmdale","CA","93551","US","USA","Mohamed Abuouf","",""
"AVO Logistics LLC","2215 Natomas Park Dr # 3202","Sacramento","CA","95833","US","USA","Sabria Jones","",""
"Bell Lap Logistics LLC","901 Bay Marina Dr","National City","CA","91950","US","USA","","",""
"Expert Delivery LLC","7441 Anaconda Ave","Garden Grove","CA","92841","US","USA","Shanese T Douglas","",""
"Hilltop Logistics LLC","3132 Henderson Dr","Richmond","CA","94806","US","USA","","",""
"NAFE LLC","9051 Union Park Way","Elk Grove","CA","95624","US","USA","Timothy Nash II","",""
"Open Pacific Logistics LLC","548 Market St #305216","San Francisco","CA","94104","US","USA","Corey Cummings","",""
"Remix Logistix LLC","1717 Webster St Unit 811","Oakland","CA","94612-4371","US","USA","Albert Javar","",""
"Anthony A Johnson LLC","2310 Rolling Ridge Rd","Chula Vista","CA","91914","US","USA","Anthony A Johnson","",""
"Chocolatte Enterprises LLC","12750 Centralia St Unit 165","Lakewood","CA","90715","US","USA","Taniya Luckett","",""
"OnDot LLC","42738 Mayfair Park Ave","Fremont","CA","94538","US","USA","Deepak Kaushik","",""
"BHC Express","10736 Jefferson Blvd Ste 1145","Culver City","CA","90230","US","USA","Jeff Feldman","",""
"OnPoint Logistics LLC","1510 Fashion Island Blvd Ste 300","San Mateo","CA","94404-5036","US","USA","Sherif Mohamed Gadallah","",""
"Dave’s California Logistics","22850 Sunriver Dr","Red Bluff","CA","96080","US","USA","David Koentopf","",""
"Silicon Valley Logistics LLC","1212 El Camino Real H","San Bruno","CA","94066","US","USA","Shrey Bhatia","",""
"CamCash Logistics LLC","16550 Via Esprillo","San Diego","CA","92127","US","USA","Bill Quintana","",""
"Tollo Transport LLC","467 Saratoga Ave #601","San Jose","CA","95129","US","USA","Abenezer Yohalashet","",""
"Custom Care Logistics LLC","23447 Weayfarer Ct","Auburn","CA","95602","US","USA","Kurt Speck","",""
"Sapien Logistics LLC","17 Swift","Lake Forest","CA","92630","US","USA","Mani Mirzazadeh","",""
"Courier Vault Services","25740 Wordsworth Ln","Stevenson Rnh","CA","91381-1302","US","USA","Adam Rey","",""
"SPS Ventures Inc","27943 Seco Canyon Rd #599","Santa Clarita","CA","91350","US","USA","James Bassett","",""
"MaeFlower Logistics LLC","23881 Via Fabricante Ste 504","Mission Viejo","CA","92691","US","USA","Jason Cuthbert","",""
"Rejoice Delivers LLC","32738 Foxglove Way","Union City","CA","94587","US","USA","Kevin Hom","",""
"X Speed Logistics","561 S Casita St","Anaheim","CA","92805-4748","US","USA","Jack Bao","",""
"Evolution Logistics LLC","845 Sweetbay Ln","Los Angeles","CA","90059","US","USA","Erik Joseph","",""
"Alabaster Box LLC","3505 Dahill Court","San Jose","CA","95121","US","USA","Obianuju Diru","",""
"DLVR","753 Chapala Drive","Pacific Palisades","CA","90272","US","USA","Ian Silverstein","",""
"Last Mile Logistics Inc","2800 Blue Oak Ct","Brentwood","CA","94513-4617","US","USA","Craig Zimmer","",""
"On-the-Go Delivery Services LLC","11823 Willard Ave","Tustin","CA","92782","US","USA","Sam Hamdan","",""
"SDLA Courier Service Inc","1865 W 222Nd St Suite B","Torrance","CA","90501","US","USA","Alex Vyborg","",""
"Front Door Logistics LLC","234 Morning Canyon Rd","Corona Dl Mar","CA","92625","US","USA","Kirsten Tharp","",""
"Patriot Logistics Services LLC","7227 Central Ave","Riverside","CA","92504","US","USA","Joshua Schraeder","",""
"Reyes Logistics LLC","6804 Harvest Oak Court","Elk Grove","CA","95758","US","USA","Jonathan Reyes","",""
"SoCal 101 Logistics LLC","2829 Townsgate Rd Ste 100","Westlake Vlg","CA","91361-3015","US","USA","Allison Criscuolo","",""
"Rathmor Services","650 N Rose Dr Ste 520","Placentia","CA","92870","US","USA","Hisham Awadalla","",""
"Integrity Logistics LLC","2950 Buskirk Ave Ste 300","Walnut Creek","CA","94597","US","USA","Mecca Dionne Evans","",""
"Starbird Delivery LLC","13207 Ingres Ave","Granada Hills","CA","91344","US","USA","David Bertelsen","",""
"Stinger Logistics Inc","23881 Via Fabricante Suite 508","Mission Viejo","CA","92691","US","USA","James Kirk Stricker","",""
"FIST Logistics LLC","2418 Armstrong Street","Livermore","CA","94551","US","USA","Antonio Davis","",""
"Unparalleled Delivery LLC","500 W Colorado St Suite C 380","Glendale","CA","91204","US","USA","John Yamada","",""
"FunnelCloudSales","21758 Placeritos Blvd","Newhall","CA","91321","US","USA","Timothy Brian Kane","",""
"Jeronimo Logistics LLC","25725 Jeronimo Road","Mission Viejo","CA","92691","US","USA","Jeremiah Jacks","",""
"AGU Logistics Inc","875 West 64Th Avenue","Denver","CO","80011","US","USA","Binyam Seleshie Aynalem","",""
"Zulu Logistix LLC","2780 Lloyd Rd","Jacksonville","FL","32254","US","USA","Douglas Jason Parker","",""
"Alpha Zulu Logistics LLC","562 Cordova Ct","Lafayette","CO","80026","US","USA","Will Boyd","",""
"Bison Peak LLC","9542 Yucca Way","Arvada","CO","80007","US","USA","","",""
"Blue Bear Logistics LLC","1870 W Dixie Pl","Denver","CO","80221","US","USA","Lisa Sargent","",""
"Bringly Inc","1880 Office Club Pt Suite 249","Colorado Springs","CO","80920","US","USA","Ramin Veli","",""
"Celestine Logistics Ltd","2020 N Academy Blvd Ste 261 # 167","Colorado Springs","CO","80909","US","USA","Darron Celestine","",""
"Chapters Logistics LLC","4555 E 37Th St","Loveland","CO","80538","US","USA","Kenneth J Suder","",""
"Denver Last Mile Logistics","7535 E Hampden Ave Ste 400","Denver","CO","80231","US","USA","Victor Serna","",""
"Epp Services LLC","4991 S Malta Way","Centennial","CO","80015","US","USA","Selwyn Epperson","",""
"Fair Winds Logistics LLC","138 S Washington Ave","Louisville","CO","80027-9792","US","USA","Courtney Rank","",""
"Final Mile Fast LLC","875 W 64th Ave","Denver","CO","80221","US","USA","Francisco Ramos","",""
"Gage Logistics LLC","2738 Eliot St","Denver","CO","80211-4112","US","USA","Robert Dwayne Gage","",""
"Halmoni LLC","21968 E Radcliff Cir","Aurora","CO","80015","US","USA","Naomi Anna Kim","",""
"Iconic Logistics LLC","266 Ponderosa Pl","Fort Lupton","CO","80621","US","USA","Jessie Lee Overly","",""
"Inyati LLC","5880 S Southlands Pkwy Apt 209","Aurora","CO","80016","US","USA","Willem Geyer","",""
"JDK Delivery LLC","12955 Woodlake Rd","Elbert","CO","80106","US","USA","Treassia Hall-Cawthon","",""
"Loveland Logistics LLC","6020 Hunington Hills Dr","Fort Collins","CO","80525","US","USA","Charles J Zulanas III","",""
"Luna Freight LLC","7572 S Rosemary Cir","Centennial","CO","80112","US","USA","Paul Wiethorn","",""
"My Prime Group","10753 Cedar Brook Ln","Littleton","CO","80126","US","USA","","",""
"Myriad Fleet LLC","400 W 160Th Ave","Broomfield","CO","80233","US","USA","","",""
"OAAK LLC","173 Audubon Dr","Colorado Spgs","CO","80910","US","USA","Olawale Akinremi","",""
"Pedigo Logistics LLC","8310 S Valley Hwy Suite 300","Englewood","CO","80112","US","USA","Ryan Pedigo","",""
"Podium Logistics LLC","5574 S Laredo Street","Centennial","CO","80015","US","USA","Carl H Svanstrom","",""
"Puma Logistics LLC","1624 Market St Ste 226","Denver","CO","80202","US","USA","Justin Walker","",""
"Rehoboth Logistics","15600 E Caley Pl","Centennial","CO","80016-1053","US","USA","Olayinka Akinrinola","",""
"RGK Logistics LLC","2889 Himalaya Rd","Aurora","CO","80011","US","USA","Frank Robinson","",""
"Rhino Logistics LLC","1507 Old Tale Road","Boulder","CO","80303","US","USA","Richard Leddon","",""
"Roman Logistics LLC","1437 Denver Ave #126","Loveland","CO","80538","US","USA","Felix Quezada Jr","",""
"Skybridge Delivery LLC","485 N Denver Ave","Loveland","CO","80537","US","USA","Luke Schilling","",""
"Special Projects Group LLC","3013 Windrift Ln","Berthoud","CO","80513","US","USA","Andrew Yu-Pe Kwang","",""
"Tasty Trails Logistics LLC","19988 E Crestline Pl","Centennial","CO","80015","US","USA","Tasha Elliott","",""
"The Last Mile Company LLC","8183 Briar Ridge Dr","Castle Pines","CO","80108-8219","US","USA","Ben Lockett","",""
"Tint Logistics Inc","195 Commander Dr","Erie","CO","80516","US","USA","Dino Coltrinari","",""
"V3 Logistics LLC","4953 W 73Rd Ave","Westminster","CO","80030-5141","US","USA","Victor Richard Vigil Jr","",""
"Remson Deliveries LLC","5110 S Danube St","Centennial","CO","80015","US","USA","Christine Remson","",""
"Speedbox LLC","8181 Arista Place Unit 100","Broomfield","CO","80021","US","USA","Travis Duea","",""
"Dracarys Fleet LLC","875 W 64Th Ave","Denver","CO","80221","US","USA","Grant Gassaway","",""
"Nasepero Logistics LLC","2889 Himalaya Rd","Aurora","CO","80011","US","USA","Marco Mancha","",""
"Astro Logistics LLC","1131 Tolland Tpke Ste O","Manchester","CT","06042-1679","US","USA","Kashif Chaudhary","",""
"Bold Move Logistics LLC","125 Sycamore Ln","Fairfield","CT","6824","US","USA","Diane Mirabile","",""
"CCC Delivery LLC","1000 Lafayette Blvd, Suite 1153","Bridgeport","CT","6614","US","USA","Michael Schroeder","",""
"CRE Delivery Inc","71 Horizon Dr","Bristol","CT","6010","US","USA","Dennis Loring","",""
"Delivery Excellence LLC","79 6Th Ave","Milford","CT","6460","US","USA","Chuck Murphy","",""
"DJB Express Services LLC","25 Glenbrook Rd Apt 310","Stamford","CT","6902","US","USA","Dean Brown","",""
"Honor Platoon Logistics LLC","466 Yellow Brick Rd","Orange","CT","6477","US","USA","Sean-Michael Green","",""
"Horizon Delivery Squad LLC","65 Fawn Hill Rd","Killingworth","CT","6419","US","USA","Walid Bouzouita","",""
"Jak’s DS LLC","22 North Plains Industrial Road","Wallingford","CT","6492","US","USA","John W Garlock","",""
"Karton Logistics LLC","8 Old Sherman Tpke","Danbury","CT","6810","US","USA","Karim Gabriel Choueiri","",""
"Mad Logistics LLC","974 Old Durham Rd","Wallingford","CT","6492","US","USA","Matthew Oneto","",""
"Maple Distribution LLC","8 Maple Ter","Ledyard","CT","6339","US","USA","Craig Eldridge","",""
"Marin TranSystems Inc","34 May Court","Monroe","CT","6468","US","USA","Matthew Moroni","",""
"Nutmeg Courier LLC","17 Hemlock Hill Drive","Glastonbury","CT","6033","US","USA","Mobashar A Akram","",""
"Pioneer Mobility LLC","59R Dyer Avenue","Canton","CT","6019","US","USA","Stephen Michael Bemis","",""
"PTRN Transport LLC","71 Horizon Dr","Bristol","CT","6010","US","USA","Jason Vaillette","",""
"Pure Logistics LLC","65 Holmes Rd","Newington","CT","6111","US","USA","Nauman Nafees","",""
"QuickFire Logistics LLC","67 Holly Hill Lane Suite 302","Greenwich","CT","6830","US","USA","Mehdi Alami","",""
"Steadfast Logistics LLC","7120 Main St","Trumbull","CT","6611","US","USA","Kevin Murphy","",""
"These Guys’ New York Deli Corp","8 Old Sherman Turnpike","Danbury","CT","6810","US","USA","Oscar Rubio","",""
"TSM Logistics LLC","24 Newfield St","Norwalk","CT","6850","US","USA","Eugene Horne","",""
"X4 Logistics LLC","163 Speno Rdg","Rocky Hill","CT","06067-2835","US","USA","Joseph Haddad","",""
"Condor Shipping and Logistics LLC","25 Avon St","Manchester","CT","6040","US","USA","John Zapata","",""
"Phoenix LLC","2842 Main St Pmb 236 Ste #236","Glastonbury","CT","6033","US","USA","","",""
"Prishaan & Priyam Logistics LLC","35 National Dr","Glastonbury","CT","6033","US","USA","Dhaval Chokshi","",""
"Servant Logistics LLC","54 Orchard Hill Ln","Middletown","CT","6457","US","USA","Sieh Washington","",""
"STARR Logistics LLC","240 Ellington Road","South Windsor","CT","6074","US","USA","Joseph Acquista","",""
"Spelman Logistics Inc","175 Capital Blvd Suite 402","Rocky Hill","CT","6067","US","USA","Anthony S. Richardson","",""
"ButterDrive LLC","1000 Lafayette Blvd Ste 1100","Bridgeport","CT","6604","US","USA","Temitope Oshin","",""
"IDEA Logistics Inc","100 Helmsford Way","Windsor","CT","6095","US","USA","Hafiz Pasha","",""
"Sweet Delivery Service LLC","172 Gaylord Mountain Rd","Hamden","CT","06518-1716","US","USA","William Sweet","",""
"Reach Logistics LLC","48 Boston Post Rd","Orange","CT","6477","US","USA","Carlos Mora","",""
"Vatra Logistics LLC","100 Helmsford Way","Windsor","CT","6095","US","USA","Redion Vathi","",""
"SSK Delivery LLC","48 Boston Post Rd","Orange","CT","6477","US","USA","Nazia Khan","",""
"4 Dimensions LLC","402 Rolling Green Ave","New Castle","DE","19720","US","USA","","",""
"Advance Shipping LLC","127 W Harvest Dr","New Castle","DE","19720","US","USA","Imane Chichane","",""
"Agile Delivery Delaware LLC","851 Boxwood Road","Wilmington","DE","19804","US","USA","Paul Latella","",""
"Blue Hen Route LLC","851 Boxwood Rd","Wilmington","DE","19804","US","USA","Bilal Gondal","",""
"Delco Deadline Deliveries LLC","221 N. Broad Street","Middletown","DE","19709","US","USA","Candace Plunkett","",""
"Gatelink USA Inc","851 Boxwood Rd","Wilmington","DE","19804","US","USA","Mohammed Oloko","",""
"Hairston Vision Inc","192 Theater Lane","Camden","DE","19934","US","USA","Willie Hairston","",""
"Handy Logistics LLC","829 Sabina Cir","Bear","DE","19701","US","USA","Kathi Handy","",""
"Kiss Transport LLC","1700 Dulaney St","Seaford","DE","19973","US","USA","Nathan Andrew Dartnell","",""
"Magnitude Express LLC","4142 Ogletown Stanton Rd #439","Newark","DE","19713","US","USA","Hauns Brereton","",""
"Marathon Logistics LLC","851 Boxwood Rd","Wilmington","DE","19804","US","USA","Janae Waters","",""
"MDD3 Logistics LLC","500 Garrison Court #201","New Castle","DE","19720","US","USA","Belinda Hill","",""
"Yinzer Logistics LLC","651 N Broad St Ste 206","Middletown","DE","19709","US","USA","Andrew J Brennan","",""
"1UP Logistics LLC","39 Arrowhead Dr","Palm Coast","FL","32137","US","USA","Christ Pitz","",""
"307Logistics","623 Queens Harbor Blvd","Jacksonville","FL","32225","US","USA","Alan John","",""
"A&E Worldwide LLC","8425 Sw 200 Terrace","Cutler Bay","FL","33189","US","USA","Anthony Arencibia","",""
"A-Team Transportation LLC","6547 Shepherd Oaks St","Lakeland","FL","33811","US","USA","Arnita Andrews","",""
"Accurate Logistics LLC","4491 Hunting Trl","Lake Worth","FL","33467-3532","US","USA","Roxana Midori Pinillos Teruya","",""
"Addair Insurance Agencies LLC","10713 Lake Louisa Road","Clermont","FL","34711","US","USA","Deborah Addair","",""
"ADS Logistics Inc","9159 Sw 77Th Ave Suite 207","Miami","FL","33156","US","USA","Diana Duran","",""
"ALFIN0819 LLC","1701 Sw 10Th St","Miami","FL","33135-5103","US","USA","Jorge Castro","",""
"All Wrights Reserved LLC","4401 Seaboard Rd","Orlando","FL","32808-3812","US","USA","BriAnn Wright","",""
"Alpha One Logistics LLC","13133 34Th St N","Clearwater","FL","33762","US","USA","Eric Koser","",""
"ALS Carrier Express Services LLC","6384 Harney Road","Tampa","FL","33610","US","USA","Arlen Smith","",""
"AMLO Logistics LLC","1111 Southwest 30Th Avenue","Deerfield Beach","FL","33442","US","USA","Andres Lopez-Llamozas","",""
"Asim Logistics LLC","14490 Corporate Road North","Jupiter","FL","33478","US","USA","Asim Hasan","",""
"Assurance Package Express LLC","1216 S Orange Blossom Trl","Orlando","FL","32805","US","USA","Jason Jackson","",""
"Aura Logistics LLC","1111 Sw 30th Ave","Deerfield Beach","FL","33442","US","USA","Rafael Ramos","",""
"Barrio CEO LLC","8841 Froude Ave","Surfside","FL","33154","US","USA","Luis Perlish","",""
"Bay Tire Mobile LLC","7106 W Creek Dr","Tampa","FL","33615","US","USA","Liliana M Astete","",""
"Belchere Management Solutions LLC","13450 Sw Anthony F Sansone Sr Blvd","Port St Lucie","FL","34984","US","USA","Jennifer Belcher","",""
"Big Dog Delivery LLC","9645 Tradeport Drive","Orlando","FL","32827","US","USA","Kevin Madorin","",""
"Blue Heron Logistics LLC","11528 W State Road 84 Suite No 836","Davie","FL","33325","US","USA","Barry Forbes","",""
"Booz Logistics Inc","8251 Nw 66Th St","Miami","FL","33166-2721","US","USA","Maria Carolina Martin Ravelo","",""
"Box Delivery LLC","7965 State Road 50 Ste 1000","Groveland","FL","34736","US","USA","Howard T Jared","",""
"Broward Delivery Services Inc","2800 N Andrews Ave Ext","Pompano Beach","FL","33064","US","USA","Michael Yarbrough","",""
"Buena Vista Logistics Inc","1033 Vale Orchard Ln","Jacksonville","FL","32207","US","USA","David Stehlin","",""
"Business Logistics Solutions LLC","7266 Nw 70Th St","Miami","FL","33166","US","USA","Xavier Bello","",""
"Carrington Company LLC","4432 Vermillion Sky Dr","Wesley Chapel","FL","33544","US","USA","Joshua Carrington","",""
"Cat 5 Couriers LLC","42 Sanderson Drive","Saint Johns","FL","32259","US","USA","Michael Dravo","",""
"Choice Delivery LLC","6365 Collins Ave Apt 3502","Miami Beach","FL","33141-9614","US","USA","Dwayne Cochran","",""
"Civil Military Operations – Logistics","4886 Sw 158Th Ave","Southwest Ranches","FL","33331","US","USA","Nilda Toro","",""
"CKC Delivery Service LLC","10016 Bavaria Rd","Fort Myers","FL","33913","US","USA","Kelly Cunningham","",""
"Clean and Green Services LLC","16908 Florence View Dr","Montverde","FL","34756","US","USA","Debra Asbacher","",""
"C O Florida LLC","13450 Nw 14Th St","Miami","FL","33182","US","USA","Miguel A Contreras","",""
"Cypri Logistics LLC","1701 W Wetherbee Rd Ste 772729","Orlando","FL","32837","US","USA","Luis Concepcion","",""
"DAJ Logistics LLC","8972 Three Rail Drive","Boynton Beach","FL","33472","US","USA","David Johnson","",""
"Danna Logistics LLC","2121 Nw 67Th Pl","Gainesville","FL","32653-1603","US","USA","Dana A Owens","",""
"Di Mare & Co Logistics Inc","9425 Sw 72Nd St Ste 100","Miami","FL","33173","US","USA","Sandra Di Mare","",""
"DP Logistics LLC","6 E Bay St Ste 301","Jacksonville","FL","32202-5419","US","USA","Evan Darby","",""
"Dragonfly Logistics Service LLC","3093 Mlk Blvd","Fort Myers","FL","33916","US","USA","Jesse Bryson","",""
"Drive On Delivery Services LLC","1205 Franklin Street Suite 109","Tampa","FL","33602","US","USA","Richard Jahnke","",""
"E-Force Logistics LLC","8792 Ely Rd","Pensacola","FL","32514","US","USA","Gregory Elizondo","",""
"EEEC Logistics LLC","4701 Mirage Bay Cir","Fort Myers","FL","33966","US","USA","Adetokunboh Alabi","",""
"Elite Logistics Miami LLC","8272 Prestige Commons Dr","Tamarac","FL","33321","US","USA","Matthew Paranac","",""
"Elite Onpoint Delivery Service Inc","2400 Mason Ave","Daytona Beach","FL","32119","US","USA","Mario Montoya","",""
"Epic Logistics LLC","361 Cross Ridge Dr","Ponte Vedra","FL","32081","US","USA","Trevor Richter","",""
"Exas Logistics LLC","15800 Pines Blvd Ste 300","Pembroke Pines","FL","33027","US","USA","David Ross","",""
"Excelsior WPB LLC","3950 N Flagler Dr Apt 202","West Palm Beach","FL","33407","US","USA","Joyce Couch McLeary","",""
"Express Transit LLC","15503 Avocetview Ct","Lithia","FL","33547","US","USA","Marissa Powell","",""
"Far-Go Logistics LLC","8760 Davis Blvd","Naples","FL","34104","US","USA","Carla Hernandez","",""
"Farhills Logistics LLC","8399 Bowden Way","Windermere","FL","34786","US","USA","Luis Regalado","",""
"FAS Transport LLC","10012 Gulf Center Drive Suite #5280","Fort Myers","FL","33913","US","USA","Jerry Faiella","",""
"Flamingo Freight LLC","1002 W Michigan St","Orlando","FL","32805","US","USA","Dominic Rodriguez","",""
"Flo Express LLC","3215 Ne 207Th Ter","Aventura","FL","33180-3610","US","USA","Neil Florin","",""
"Florida Coast Logistics LLC","10380 Sw Village Center Drive Ste 103","Port Saint Lucie","FL","34987","US","USA","Catrinna Graham","",""
"Florida Delivery Solutions LLC","559 Ladrone Ave","Tampa","FL","33606","US","USA","John Leaman","",""
"Freedom Delivery Team LLC","1580 Sawgrass Corporate Pkwy Ste 130","Sunrise","FL","33323","US","USA","Ovidio Mendez","",""
"Galaxy Management Solutions LLC","11906 Sw Aventino Dr","Port St Lucie","FL","34987","US","USA","Swindale Rhodes","",""
"GALO Logistics LLC","16063 Fairway Cir","Weston","FL","33326-1403","US","USA","Rafael E Garcia","",""
"Garryowen DSP LLC","3000 Shelby Industrial Dr","Apopka","FL","32703","US","USA","Trevor L Thomas","",""
"Globalvend Logistics LLC","3000 Shelby Industrial Dr","Apopka","FL","32712","US","USA","Charles Anderson","",""
"GYP Logistics LLC","1524 Talavera St Se","Palmbay","FL","32909","US","USA","Geraldine Y Penn","",""
"H6 Logistics LLC","940 Sw 177Th Way","Pembroke Pnes","FL","33029","US","USA","Mark Hitchens","",""
"HEAT Logistics LLC","749 Silver Birch Place","Longwood","FL","32750","US","USA","Brian Nulty","",""
"Home Safe Logistics LLC","109 Bessemer Circle","Brandon","FL","33511","US","USA","Charles Stansberry","",""
"ICS Delivery Solutions LLC","2200 Tallevast Rd","Sarasota","FL","34243","US","USA","Justin Louis Woods","",""
"IQS Logistics LLC","637 Lake Blvd","Weston","FL","33326","US","USA","Richard A Cervantes","",""
"JEC Logistics Solutions LLC","12717 W Sunrise Blvd Pmb 192 Suite 192","Sunrise","FL","33323","US","USA","Jason Michael Shavelson","",""
"JR Transport System LLC","1391 Nw St Lucie West Blvd # 217","Port St Lucie","FL","34986","US","USA","Dennis Jackson","",""
"K&M Last Mile LLC","7463 Sw 164 Avenue","Miami","FL","33193","US","USA","Katherine Ariza","",""
"KnC Delivery Inc","9651 Castle Point Dr #1323","Sarasota","FL","34238","US","USA","Clark Brown","",""
"Kratos Logistics LLC","3120 Sw 186 Terrace","Miramar","FL","33029","US","USA","Miguel Rodriguez","",""
"Last Mile DSP LLC","11729 Sw 95Th St","Miami","FL","33186","US","USA","Jose Restrepo","",""
"Latitude Longitude and Logistics LLC","226 N Nova Rd Ste 317","Ormond Beach","FL","32174","US","USA","Mark Morse","",""
"Lightspeed Logistics Miami LLC","11077 Biscayne Blvd Ste 406","Miami","FL","33161","US","USA","Simona Kogan","",""
"Lightspeed Routes LLC","1216 S Orange Blossom Trl","Orlando","FL","32805","US","USA","Eduardo Pacheco","",""
"LLM Delivery LLC","4401 Seaboard Rd","Orlando","FL","32808","US","USA","Logan Jack","",""
"LMSG Logistics Incorporated","8270 Logistics Drive","Fort Myers","FL","33912","US","USA","Alexander Croke","",""
"M2M On Track LLC","5955 Nw 105Th Ct Apt 710","Doral","FL","33178","US","USA","Mario J Mendoza","",""
"Machtrans LLC","2809 Ne 14Th Ave","Wilton Manors","FL","33334","US","USA","Aaron Waldman","",""
"Mako Delivery Service Inc","321 Kent Dr","Cocoa Beach","FL","32931-3819","US","USA","Kevin S Schafer","",""
"MER – Mobile Enterprise Resources – RF & LP LLC","13450 Nw 14Th St Bldg C","Miami","FL","33125-1702","US","USA","Luis F Riano","",""
"Merica Delivery Services LLC","2200 Tallevast Rd","Sarasota","FL","34243","US","USA","David Valentin","",""
"Miltay Inc","130 West Pine Avenue","Longwood","FL","32750","US","USA","Christine McMillon","",""
"Milum Express LLC","8175 W 32 Ave Suite 1","Hialeah","FL","33018-5803","US","USA","Mileidy Martinez","",""
"Miracle Mile DSP LLC","7803 Sw 129Th Pl","Miami","FL","33183","US","USA","Nestor Arguello","",""
"Nextgen International LLC","2575 Jardin Pl","Weston","FL","33327","US","USA","Daniel Hernandez Mendoza","",""
"North Florida Courier Inc","4000 Faye Rd","Jacksonville","FL","32226","US","USA","James Bush","",""
"North Star Delivery LLC","12161 Mercado Dr Unit 201","Venice","FL","34293-1147","US","USA","Steven Thumm","",""
"On Time Logistics Solutions LLC","101 Liles Street","Terra Ceia","FL","34250","US","USA","Amanda Ridge","",""
"On Top Delivery LLC","463688 State Road 200 Ste 1-351","Yulee","FL","32097","US","USA","Andre Williamson","",""
"Palm Beach Logistics LLC","700 Bonyan Trial","Boca Raton","FL","33431","US","USA","Christopher Belsha","",""
"Payton Logistics LLC","7235 Saddle Rd","Lake Worth","FL","33463","US","USA","Connor Payton","",""
"Pinnacle Express Delivery LLC","201 Turquoise Ln","Osprey","FL","34229","US","USA","Douglas Frank","",""
"Platinum Logistics Service LLC","1405 Se 5Th Ct","Cape Coral","FL","33990","US","USA","Bernadine B Carter","",""
"Power Technologies Corp","13911 Devan Lee Dr N","Jacksonville","FL","32226","US","USA","Larry Ward Jr","",""
"Prime Beach Delivers LLC","211 Flagler Lane","West Palm Beach","FL","33407","US","USA","Renee Kaplowitz","",""
"Prime Delivery Partners LLC","2121 Nw 67Th Pl","Gainesville","FL","32653","US","USA","James Mandala","",""
"Prime Lightning Logistics LLC","8440 Tradeport Dr Ste 108","Orlando","FL","32827","US","USA","Fiona Festa","",""
"Prime Transport Services LLC","250 Busch Dr E","Jacksonville","FL","32218","US","USA","Joseph Thomas","",""
"PrIncipal Delivery LLC","3900 N Haverhill Rd Ste 222421","West Palm Bch","FL","33417","US","USA","Blaine Taylor","",""
"Rapid Express Delivery LLC","2653 Bruce B Downs Suite 108-102","Wesley Chapel","FL","33544","US","USA","Vincent Iglio","",""
"REB Solutions Inc","17034 Kettle Lane","Land O Lakes","FL","34638","US","USA","Raymond Bauhs","",""
"ROR Delivery Inc","2003 N Ocean Blvd 1601","Boca Raton","FL","33431","US","USA","Richard Brady","",""
"Runner Express Logistics LLC","6703 Nw 7th St","Miami","FL","33126-6070","US","USA","Ashley Dalberiste","",""
"Saber Logistics LLC","7700 Sw 180Th Ter","Palmetto Bay","FL","33157","US","USA","Aaron Elizarraras","",""
"Samatar Delivery Logistics LLC","495 Grand Blvd Ste 206J","Miramar Beach","FL","32550","US","USA","Samatar Igeh","",""
"SEI Logistics LLC","10030 Bavaria Rd","Fort Myers","FL","33913","US","USA","Davey Sehwani","",""
"Semper Delivery LLC","770 Commerce Dr","Venice","FL","34292","US","USA","Jason Alan Schewe","",""
"Shore Delivery LLC","13650 Fiddlesticks Blvd #202-294","Fort Myers","FL","33912","US","USA","Sanjay Patel","",""
"Skills4Lifefl LLC","2972 Ne 42Nd Road","Ocala","FL","34470","US","USA","Diane Key","",""
"SoFlo Premier Logistics LLC","2101 Vista Parkway Suite 105","West Palm Beach","FL","33411","US","USA","Rocky Hemp","",""
"South Islander Xpress LLC","1573 Sw Locks Rd","Stuart","FL","34997","US","USA","Dillion Baptiste","",""
"Sow Grow Investments LLC","2800 N Andrews Ave Ext","Pompano Beach","FL","33064","US","USA","Irene Hyppolite","",""
"St Pete Delivery Inc","1901 Shore Acres Blvd Ne","St Petersburg","FL","33703","US","USA","Jill Williams","",""
"Steadfast Delivery Solutions LLC","235 Apollo Beach Blvd # 269","Apollo Beach","FL","33572","US","USA","Kenneth Moll","",""
"Success Beyond Boundaries Enterprises LLC","811 Islebay Drive","Apollo Beach","FL","33572","US","USA","Steven Barnes","",""
"Summit Delivery Systems LLC","2200 Tallevast Rd","Sarasota","FL","34243","US","USA","Jeffery DeCarlo","",""
"Sunny Tiger Logistics LLC","2817 Peters Road Suite B52","Fort Pierce","FL","34945","US","USA","Michael P Smith","",""
"Sunshine Delivery Systems & Moving Inc","1660 Fl-82","Immokalee","FL","34142","US","USA","Diogenes A Peralta","",""
"Surfside Angels LLC","4014 Chase Ave Ste 212","Miami Beach","FL","33140","US","USA","Scher Z Duchman","",""
"Sweetwater Transportation LLC","1835 Silver St","Jacksonville","FL","32206","US","USA","Dougulas G Dixon","",""
"T&T Logistics Group LLC","15437 Osprey Glen Drive","Lithia","FL","33547-3866","US","USA","Ronald Townsend","",""
"Tampa Bay Area Logistics LLC","8507 Sandy Beach St","Tampa","FL","33634","US","USA","Frank Menendez","",""
"Tampa Bay Delivery Service LLC","2136 Harbor View Dr","Dunedin","FL","34698","US","USA","Bill McKown","",""
"Tampa Delivery Service LLC","204 37Th Ave N #401","St Petersburg","FL","33704","US","USA","Michael Behrendt","",""
"Team Funk Delivery LLC","2800 N Andrews Avenue Ext","Pompano Beach","FL","33064","US","USA","Brian Funk","",""
"Three Kings Delivery Inc","5123 Spanish Oaks Drive","Lakeland","FL","33805","US","USA","Ramon Arrendell","",""
"Tollanis Solutions Inc","762A S Military Trl Ste 101","Deerfield Beach","FL","33442","US","USA","Stephen R Smith","",""
"Total Package Logistics LLC","5763 Parkwalk Cr","Boynton Beach","FL","33472","US","USA","Alison Gatto","",""
"Tropical Express Delivery LLC","31 Se 5Th St Apt 2905","Miami","FL","33131-2525","US","USA","Jesse Peralta","",""
"UTAP Delivery Inc","11714 Sw 106Th Terrace","Miami","FL","33186","US","USA","Monish K Budhrani","",""
"Wood Stork Delivery LLC","8270 Logistics Dr","Fort Myers","FL","33912","US","USA","Virginia Phillips","",""
"World LGX LLC","8830 Sw 120Th St","Miami","FL","33176-5206","US","USA","David Tirri","",""
"Crews and Co Logistics LLC","9100 Conroy Windermere Rd Ste 200","Windermere","FL","34786","US","USA","Cardais Crews","",""
"MB Freight Corp","1003 N Taylor Rd","Seffner","FL","33584-3501","US","USA","Hector Moyano","",""
"On Time Pkgs LLC","2665 North Atlantic Avenue #407","Daytona Beach","FL","32118","US","USA","Steven Sandoval","",""
"Kardia Transport LLC","8440 Tradeport Dr Ste 108","Orlando","FL","32827","US","USA","Jean S Festa","",""
"Bayou Gold Logistics LLC","113 S Monroe St 2483","Tallahassee","FL","32301","US","USA","Tamir Richard","",""
"CO Logistics LLC","800 Fl 33","Lakeland","FL","33809","US","USA","Jose Chaniell Cruz Castro","",""
"HOOAH! Express Carrier Service LLC","1003 N Taylor Rd","Seffner","FL","33584","US","USA","Kenneth Lanier","",""
"Livco East Inc","1453 Creeks Edge Ct","Fleming Isle","FL","32003","US","USA","Jason Jason","",""
"Maingate DSP Inc","15 Hangar Rd","Kissimmee","FL","34741","US","USA","Leo Cruzado","",""
"Mercury Logistics Group LLC","13539 Allyn Dr","Hudson","FL","34667","US","USA","Donald Koser","",""
"Riman Logistics LLC","4391 Sw 141St Ave","Davie","FL","33330","US","USA","Luis Riquezes","",""
"Sherpa Delivery Direct LLC","4401 Seaboard Rd","Orlando","FL","32808","US","USA","Julie Fortune","",""
"Token Logistics LLC","3956 Town Center Blvd Suite 137","Orlando","FL","32837","US","USA","John Crews","",""
"Moore & Moore Logistics LLC","12862 Ivory Stone Loop","Fort Myers","FL","33913","US","USA","Amanda Moore","",""
"JBN Logistics LLC","3000 Nw 123Rd St","Miami","FL","33167","US","USA","Jonathan Bendahan","",""
"Fusion Logistics Inc","2275 Sw 16Th Court","Miami","FL","33145","US","USA","Stuart Hyden","",""
"Watermark Delivery Solutions LLC","8010 25Th Ct E Unit 102","Sarasota","FL","34243","US","USA","Joseph Giardino","",""
"Starboard Logistics LLC","250 Busch Drive E","Jacksonville","FL","32218","US","USA","Chris Farha","",""
"Hootney Logistics Inc","770 Commerce Dr","Venice","FL","34292","US","USA","Douglas A Brockhaus","",""
"Espin Express Inc","2215 Belvedere Rd","West Palm Bch","FL","33406-1515","US","USA","Cynthia Rivera","",""
"OnRamp LLC","9799 International Ct N","St Petersburg","FL","33716","US","USA","Jerry Miller","",""
"On Top Delivery Limited Liability Company","250 Busch Drive","Jacksonville","FL","32218","US","USA","Andre Ryan Williamson","",""
"Blue Luna Fleet Inc","2007 Gold Spring Cv","Kissimmee","FL","34743","US","USA","Francisco Goicochea","",""
"Roger19 LLC","6384 Harney Road","Tampa","FL","33610","US","USA","Richard Kelley","",""
"Ace Premier Logistics LLC","6125 Feldwood Rd Ste D","Atlanta","GA","30349","US","USA","David Hart","",""
"ADF Logistics","5829 Campbellton Rd Sw Ste 104 #228","South Fulton","GA","30331","US","USA","Dyamela Youmans","",""
"Atom Logistics LLC","1615 Powers Ridge Pl","Atlanta","GA","30327","US","USA","Tamara Prince","",""
"BAM Express LLC","250 Piedmont Ave Ne Unit 1112","Atlanta","GA","30308","US","USA","Melodee C Rhodes","",""
"Black Nile Logistics LLC","25 Spring Oaks Ct","Atlanta","GA","30327","US","USA","Victor Jareem Owens","",""
"Blackstar Delivery LLC","2643 Dayview Lane","Atlanta","GA","30331","US","USA","Khary C Miller","",""
"Blanks Brothers Logistics LLC","469 Twilley Ridge Rd Sw","Smyrna","GA","30082","US","USA","Willie J Blanks Jr","",""
"Blue Cardinal Inc","6020 Shiloh Rd","Alpharetta","GA","30005","US","USA","William Haselden","",""
"Bostwick Logistics LLC","5000 Lanier Islands Parkway","Buford","GA","30518","US","USA","Andrew Lynne Bostwick","",""
"Bullard Logistics LLC","6945 Button Gwinnett Dr","Doraville","GA","30340","US","USA","Jermaine Bullard","",""
"D2D Zen LLC","804 Rum Hill Ct","Stockbridge","GA","30281","US","USA","Diane D Miller","",""
"Dubolyu Logistics","510 E 4Th St","West Point","GA","31833","US","USA","Jamie Welch","",""
"Equalize Global LLC","13010 Morris Rd Ste 650","Alpharetta","GA","30004","US","USA","Rico Beans","",""
"ETH Enterprise LLC","1500 Crossgate Rd","Port Wentworth","GA","31407","US","USA","Teahanna Hudson","",""
"Express Mile LLC","743 Windsor Pkwy","Atlanta","GA","30342-2803","US","USA","James P Soggs","",""
"Famvest Logistics Inc","2905 Brookford Ln","Atlanta","GA","30331","US","USA","Chanda Davis","",""
"First Touch Logistics Company","3622 Pr Inceton Ave","College Park","GA","30337","US","USA","Henry A Kelly","",""
"FKG Logistics LLC","214 Harmony Blvd","Pooler","GA","31322","US","USA","Dorothy Hudson-Gayle","",""
"Freight On Wheels Express LLC","320 West Lanier Ave","Fayetteville","GA","30214","US","USA","Deanna Evans","",""
"Fuller Elite Trucking LLC","6001 Redtop Loop","Fairburn","GA","30213","US","USA","Clinton D Fuller","",""
"Harper Logistics LLC","350 Bishop Rd","Austell","GA","30168","US","USA","Michael Finch","",""
"J Irvin Logistics LLC","5705 Highway 92","Fairburn","GA","30213","US","USA","Jonnie Irvin","",""
"Jackie Strong Logistics LLC","241 Pebblebrook Ln","Columbus","GA","31904","US","USA","Jadrian Jackson","",""
"JKG Logistics Inc","5940 Hogans Way","Douglasville","GA","30135","US","USA","Jeremiah Graham","",""
"Jo May Logistics","1385 Wilmington Way","Grayson","GA","30017","US","USA","Andre Sconiers","",""
"Kenan Enterprises LLC","7055 Campbellton Rd Sw","Atlanta","GA","30331","US","USA","Erica Paige","",""
"Lakes Express Inc","5829 Campbellton Rd Sw Ste. 104 #147","Atlanta","GA","30331","US","USA","Leah Norman","",""
"Lanier Logistics Inc","5161 Brook Hollow Pkwy #223","Norcross","GA","30071","US","USA","Jay Brownstein","",""
"LCC Last Mile Logistics","30 Jacks Ct","Richmond Hill","GA","31324","US","USA","Todd Cunningham","",""
"Liebrock & Liebrock Logistics LLC","6718 Pierless Ave","Sugar Hill","GA","30518","US","USA","Keri A Liebrock","",""
"LOAD: Leaders Of Accurate Delivery LLC","1359 Laurelwood Ct","Lawrenceville","GA","30045-9351","US","USA","Randy Leon Brown","",""
"Lovern Logistics LLC","1520 Broadmoor Blvd Ste A","Buford","GA","30518-7500","US","USA","Heather Lovern","",""
"MEN Logistics LLC","3300 Hamilton Mill Rd Ste 102","Buford","GA","30519","US","USA","Nashira Betton","",""
"MJB Logistics LLC","703 Lilykate Ln","Peachtree Cty","GA","30269","US","USA","","",""
"Molock’s Logistics LLC","2263 Spicy Pine Dr","Lawrenceville","GA","30044","US","USA","Nicholas Molock","",""
"OTAD On Time Accurate Delivery","260 Triple Creek Trl","Fayetteville","GA","30214","US","USA","Debra E Jenkins","",""
"Palmer ATL LLC","347 Eleanor St Se","Atlanta","GA","30317","US","USA","Michael Palmer","",""
"Performance Plus Logistics of Atlanta LLC","3604 Sunflower Drive","Buford","GA","30519","US","USA","Paul Robinson","",""
"Perry Solutions LLC","316 Symphony Way","Smyrna","GA","30080","US","USA","Merceda Perry Jr","",""
"Peterson Logistics LLC","537 Faith Street Nw","Marietta","GA","30064","US","USA","William E Peterson","",""
"PLO Logistics LLC","4800 Highlands Pkwy Se","Smyrna","GA","30082","US","USA","Melvin Kinard","",""
"QuikPak Logistics LLC","229 Peachtree St Ne Ste 2450","Atlanta","GA","30303","US","USA","Jazen Obataiye Brown Sr","",""
"Regional Express ATL Inc","965 Piedmont Rd Ste 130","Marietta","GA","30066","US","USA","Salvatore Caiazzo","",""
"Route First Logistics LLC","7055 Campbellton Road Sw","Atlanta","GA","30331","US","USA","Tonika Coaxum","",""
"Snowden Delivery Services LLC","100 Hartsfield Center Pkwy Ste 500","Atlanta","GA","30354","US","USA","Jack Varnard Snowden","",""
"Strategic Logistics Group LLC","5705 Highway 92","Fairburn","GA","30213","US","USA","Shaunette Young Adams","",""
"SwiftPak Logistics LLC","1700 Belle Meade Ct","Lawrenceville","GA","30043","US","USA","Robert Brown","",""
"T3 Omni Logistics LLC","2472 Jett Ferry Rd Ste 400","Dunwoody","GA","30338","US","USA","Josiah Gilbert","",""
"The Incline Effect Logistics LLC","845 Riley Estates Dr","Lithia Spgs","GA","30122","US","USA","Brando Taswell","",""
"The Wiz Transportation LLC","38 Broadstone Blvd","Acworth","GA","30101","US","USA","Kasheef Wyzard","",""
"Timberhouse Delivery LLC","1775 Parker Rd Se Ste C210","Conyers","GA","30094","US","USA","Kurt Dewdney","",""
"TJM Logistical Services Inc","203 Ga Highway 49 N","Byron","GA","31008","US","USA","Alexis Campbell","",""
"TNCK Logistics Inc","6020 Shiloh Rd","Alpharetta","GA","30005","US","USA","Ronika L Joseph","",""
"Top Gunn Logistics LLC","590 Willow Haven Way","Suwanee","GA","30024","US","USA","David Gunn","",""
"Top Tier Express Logistics LLC","2107 N Decatur Rd Pmb 469","Decatur","GA","30033","US","USA","Justin Bennett","",""
"TPE Logistics Solutions Inc","2000 Adams Street","Vidalia","GA","30474","US","USA","Tyron Woodard","",""
"TranMazon LLC","1700 Belle Meade Ct","Lawrenceville","GA","30043","US","USA","Milton Collier","",""
"Transnet Logistics LLC","4426 Hugh Howell Rd Ste B","Tucker","GA","30084","US","USA","Chad Fofana","",""
"Upper Valley Logistics LLC","7755 Appaloosa Trail","Gainesville","GA","30506","US","USA","Lee Morgan","",""
"Upright Logistics Group LLC","115 E Main St Ste A1B","Buford","GA","30518","US","USA","Lisa Brantley","",""
"VIA Delivery & Logistics LLC","7055 Campbellton Rd Sw","Atlanta","GA","30331","US","USA","Carlos Anton","",""
"WhiteRecon Logistics LLC","100 Bull St Ste 200","Savannah","GA","31401","US","USA","Michael D White","",""
"Cheffhil LLC","260 Peachtree St Nw Ste 2200","Atlanta","GA","30303","US","USA","Britney Sheffield","",""
"Parkwood Logistics LLC","300 Westover Ct","Mcdonough","GA","30253","US","USA","Anthony Johnson","",""
"AGT Logistics LLC","2518 Hampton Valley Dr Sw","Marietta","GA","30008","US","USA","Andre Lynar","",""
"I&G Company LLC","2829 Shiaway Trl","Snellville","GA","30039","US","USA","Lisa Williams","",""
"Prosperity Transport Services LLC","2618 Talley St","Decatur","GA","30030","US","USA","Shayna Marshall","",""
"Six & Seven Logistics Inc","170 Northland Ridge Trail","Atlanta","GA","30342","US","USA","Brendon Hudson","",""
"SwyftPATH Solutions Inc","7520 Factory Shoals Rd Ste 100","Austell","GA","30168","US","USA","Olasanmi Olubobokun","",""
"Three Paths Logistics LLC","2897 N Druid Hills Rd Ne Pmb 232","Atlanta","GA","30329","US","USA","Sabreen Shabazz","",""
"W.E.S. Logistics LLC","6020 Shiloh Rd","Alpharetta","GA","30005","US","USA","Germani Hunt","",""
"Kleen Logistics Services LLC","3235 Satellite Blvd Suite 300","Duluth","GA","30096","US","USA","Oyebamiji Oladeji","",""
"Brookman Enterprises LLC","8465 Campbellton St","Douglasville","GA","30134","US","USA","Glennis L Tillman","",""
"GCA Logistics LLC","7055 Campbellton Rd","Atlanta","GA","30031","US","USA","Gunawan Lie","",""
"Sinaro Logistics","576 Emporia Loop","Mcdonough","GA","30253","US","USA","Simon Amadi-Emina","",""
"Travel Management Professionals","5705 Hwy 92","Fairburn","GA","30213","US","USA","Octavis Lampkin","",""